{"type":"Topology","objects":{"counties":{"geometries":[{"properties":{"county":"Rockingham","county_code":79,"region":"Piedmont Triad"},"type":"Polygon","arcs":[[-2,-22,0,-32,-3]],"id":0},{"properties":{"county":"Guilford","county_code":41,"region":"Piedmont Triad"},"type":"Polygon","arcs":[[1,-4,-5,-109,-59]],"id":1},{"properties":{"county":"Alamance","county_code":1,"region":"Piedmont Triad"},"type":"Polygon","arcs":[[2,-31,-70,-118,-6,3]],"id":2},{"properties":{"county":"Alexander","county_code":2,"region":"Northwest"},"type":"Polygon","arcs":[[-269,-130,-83,-42]],"id":3},{"properties":{"county":"Randolph","county_code":76,"region":"Piedmont Triad"},"type":"Polygon","arcs":[[4,5,-117,-177,-178,-110]],"id":4},{"properties":{"county":"Wayne","county_code":96,"region":"Southeast"},"type":"Polygon","arcs":[[-122,-150,-191,-228,-206,-137]],"id":5},{"properties":{"county":"Ashe","county_code":5,"region":"Northwest"},"type":"Polygon","arcs":[[-8,-43,-44,6]],"id":6},{"properties":{"county":"Alleghany","county_code":3,"region":"Northwest"},"type":"Polygon","arcs":[[-14,-40,7,8]],"id":7},{"properties":{"county":"Currituck","county_code":27,"region":"Northeast"},"type":"Polygon","arcs":[[9,-57,-86,-12]],"id":8},{"properties":{"county":"Camden","county_code":15,"region":"Northeast"},"type":"Polygon","arcs":[[10,11,-85,-36,-15]],"id":9},{"properties":{"county":"Surry","county_code":86,"region":"Piedmont Triad"},"type":"Polygon","arcs":[[12,-23,-61,-54,-41,13]],"id":10},{"properties":{"county":"Gates","county_code":37,"region":"Northeast"},"type":"Polygon","arcs":[[14,-37,-48,-51,-17,15]],"id":11},{"properties":{"county":"Hertford","county_code":46,"region":"Northeast"},"type":"Polygon","arcs":[[16,-50,-65,-20,17]],"id":12},{"properties":{"county":"Northampton","county_code":66,"region":"Northeast"},"type":"Polygon","arcs":[[18,19,-68,-39,-24]],"id":13},{"properties":{"county":"Stokes","county_code":85,"region":"Piedmont Triad"},"type":"Polygon","arcs":[[20,21,-58,22]],"id":14},{"properties":{"county":"Warren","county_code":93,"region":"North Central"},"type":"Polygon","arcs":[[23,-38,-62,-26,24]],"id":15},{"properties":{"county":"Vance","county_code":91,"region":"North Central"},"type":"Polygon","arcs":[[25,-64,-29,26]],"id":16},{"properties":{"county":"Granville","county_code":39,"region":"North Central"},"type":"Polygon","arcs":[[27,28,-63,-99,-72,-34]],"id":17},{"properties":{"county":"Caswell","county_code":17,"region":"Piedmont Triad"},"type":"Polygon","arcs":[[29,-35,-71,30,31]],"id":18},{"properties":{"county":"Person","county_code":73,"region":"North Central"},"type":"Polygon","arcs":[[32,33,-74,-69,34]],"id":19},{"properties":{"county":"Pasquotank","county_code":70,"region":"Northeast"},"type":"Polygon","arcs":[[35,-89,-47,36]],"id":20},{"properties":{"county":"Halifax","county_code":42,"region":"Northeast"},"type":"Polygon","arcs":[[-67,-94,-80,-76,37,38]],"id":21},{"properties":{"county":"Wilkes","county_code":97,"region":"Northwest"},"type":"Polygon","arcs":[[39,40,-55,-270,41,-82,-45,42]],"id":22},{"properties":{"county":"Watauga","county_code":95,"region":"Northwest"},"type":"Polygon","arcs":[[43,44,-81,-53,45]],"id":23},{"properties":{"county":"Perquimans","county_code":72,"region":"Northeast"},"type":"Polygon","arcs":[[46,-88,-49,47]],"id":24},{"properties":{"county":"Chowan","county_code":21,"region":"Northeast"},"type":"Polygon","arcs":[[48,-102,-66,49,50]],"id":25},{"properties":{"county":"Avery","county_code":6,"region":"Northwest"},"type":"Polygon","arcs":[[-84,-107,-115,-78,51,52]],"id":26},{"properties":{"county":"Yadkin","county_code":99,"region":"Piedmont Triad"},"type":"Polygon","arcs":[[53,-60,-101,-266,54]],"id":27},{"properties":{"county":"Dare","county_code":28,"region":"Northeast"},"type":"Polygon","arcs":[[55,-147,-87,56]],"id":28},{"properties":{"county":"Forsyth","county_code":34,"region":"Piedmont Triad"},"type":"Polygon","arcs":[[57,58,-108,-100,59,60]],"id":29},{"properties":{"county":"Franklin","county_code":35,"region":"North Central"},"type":"Polygon","arcs":[[61,-75,-97,62,63]],"id":30},{"properties":{"county":"Bertie","county_code":8,"region":"Northeast"},"type":"Polygon","arcs":[[64,65,-105,-95,66,67]],"id":31},{"properties":{"county":"Orange","county_code":68,"region":"North Central"},"type":"Polygon","arcs":[[68,-73,-119,69,70]],"id":32},{"properties":{"county":"Durham","county_code":32,"region":"North Central"},"type":"Polygon","arcs":[[71,-98,-120,72,73]],"id":33},{"properties":{"county":"Nash","county_code":64,"region":"North Central"},"type":"Polygon","arcs":[[-79,-123,-139,74,75]],"id":34},{"properties":{"county":"Mitchell","county_code":61,"region":"Northwest"},"type":"Polygon","arcs":[[76,77,-114,-90]],"id":35},{"properties":{"county":"Edgecombe","county_code":33,"region":"North Central"},"type":"Polygon","arcs":[[-96,-134,-121,78,79]],"id":36},{"properties":{"county":"Caldwell","county_code":14,"region":"Northwest"},"type":"Polygon","arcs":[[80,81,82,-132,-106,83]],"id":37},{"properties":{"county":"Tyrrell","county_code":89,"region":"Northeast"},"type":"Polygon","arcs":[[84,85,86,-146,-103,87,88]],"id":38},{"properties":{"county":"Yancey","county_code":100,"region":"Northwest"},"type":"Polygon","arcs":[[89,-113,-124,-92,90]],"id":39},{"properties":{"county":"Madison","county_code":57,"region":"Western"},"type":"Polygon","arcs":[[91,-126,-127,92]],"id":40},{"properties":{"county":"Martin","county_code":58,"region":"Northeast"},"type":"Polygon","arcs":[[93,94,-104,-144,-135,95]],"id":41},{"properties":{"county":"Wake","county_code":92,"region":"North Central"},"type":"Polygon","arcs":[[96,-138,-164,-116,97,98]],"id":42},{"properties":{"county":"Davie","county_code":30,"region":"Piedmont Triad"},"type":"Polygon","arcs":[[99,-111,-274,-267,100]],"id":43},{"properties":{"county":"Washington","county_code":94,"region":"Northeast"},"type":"Polygon","arcs":[[101,102,-145,-142,103,104]],"id":44},{"properties":{"county":"Burke","county_code":12,"region":"Northwest"},"type":"Polygon","arcs":[[105,-131,-275,-160,-156,-112,106]],"id":45},{"properties":{"county":"Davidson","county_code":29,"region":"Piedmont Triad"},"type":"Polygon","arcs":[[107,108,109,-180,-271,110]],"id":46},{"properties":{"county":"McDowell","county_code":59,"region":"Northwest"},"type":"Polygon","arcs":[[111,-155,-125,112,113,114]],"id":47},{"properties":{"county":"Chatham","county_code":19,"region":"North Central"},"type":"Polygon","arcs":[[115,-167,-157,-174,116,117,118,119]],"id":48},{"properties":{"county":"Wilson","county_code":98,"region":"North Central"},"type":"Polygon","arcs":[[120,-133,-151,121,-136,122]],"id":49},{"properties":{"county":"Buncombe","county_code":11,"region":"Western"},"type":"Polygon","arcs":[[123,124,-154,-173,-128,125]],"id":50},{"properties":{"county":"Haywood","county_code":44,"region":"Western"},"type":"Polygon","arcs":[[126,127,-172,-185,-161,-140,128]],"id":51},{"properties":{"county":"Catawba","county_code":18,"region":"Northwest"},"type":"Polygon","arcs":[[129,-268,-276,130,131]],"id":52},{"properties":{"county":"Pitt","county_code":74,"region":"Northeast"},"type":"Polygon","arcs":[[-143,-192,-190,-152,132,133,134]],"id":53},{"properties":{"county":"Johnston","county_code":51,"region":"North Central"},"type":"Polygon","arcs":[[135,136,-205,-165,137,138]],"id":54},{"properties":{"county":"Swain","county_code":87,"region":"Western"},"type":"Polygon","arcs":[[139,-163,-195,-168,140]],"id":55},{"properties":{"county":"Beaufort","county_code":7,"region":"Northeast"},"type":"Polygon","arcs":[[141,-149,-204,-193,142,143]],"id":56},{"properties":{"county":"Hyde","county_code":48,"region":"Northeast"},"type":"Polygon","arcs":[[144,145,146,147,-216,-202,148]],"id":57},{"properties":{"county":"Greene","county_code":40,"region":"Southeast"},"type":"Polygon","arcs":[[-189,149,150,151]],"id":58},{"properties":{"county":"Rutherford","county_code":81,"region":"Western"},"type":"Polygon","arcs":[[-159,152,-186,-170,153,154,155]],"id":59},{"properties":{"county":"Lee","county_code":53,"region":"North Central"},"type":"Polygon","arcs":[[-166,-175,156]],"id":60},{"properties":{"county":"Cleveland","county_code":23,"region":"Southwest"},"type":"Polygon","arcs":[[-278,-291,157,158,159]],"id":61},{"properties":{"county":"Jackson","county_code":50,"region":"Western"},"type":"Polygon","arcs":[[160,-184,161,-196,162]],"id":62},{"properties":{"county":"Harnett","county_code":43,"region":"North Central"},"type":"Polygon","arcs":[[163,164,-207,-208,-176,165,166]],"id":63},{"properties":{"county":"Graham","county_code":38,"region":"Western"},"type":"Polygon","arcs":[[167,-198,-201,168]],"id":64},{"properties":{"county":"Henderson","county_code":45,"region":"Western"},"type":"Polygon","arcs":[[169,-188,170,-182,171,172]],"id":65},{"properties":{"county":"Moore","county_code":63,"region":"Sandhills"},"type":"Polygon","arcs":[[173,174,175,-210,-227,-233,-179,176]],"id":66},{"properties":{"county":"Montgomery","county_code":62,"region":"Sandhills"},"type":"Polygon","arcs":[[177,178,-232,-181,179]],"id":67},{"properties":{"county":"Stanly","county_code":84,"region":"Southwest"},"type":"Polygon","arcs":[[-285,-272,180,-236,-225,-221]],"id":68},{"properties":{"county":"Transylvania","county_code":88,"region":"Western"},"type":"Polygon","arcs":[[181,182,183,184]],"id":69},{"properties":{"county":"Polk","county_code":75,"region":"Western"},"type":"Polygon","arcs":[[185,186,187]],"id":70},{"properties":{"county":"Lenoir","county_code":54,"region":"Southeast"},"type":"Polygon","arcs":[[188,189,-194,-214,-229,190]],"id":71},{"properties":{"county":"Craven","county_code":25,"region":"Southeast"},"type":"Polygon","arcs":[[191,192,-203,-219,-215,193]],"id":72},{"properties":{"county":"Macon","county_code":56,"region":"Western"},"type":"Polygon","arcs":[[194,195,196,-211,-199,197]],"id":73},{"properties":{"county":"Cherokee","county_code":20,"region":"Western"},"type":"Polygon","arcs":[[198,-213,199,200]],"id":74},{"properties":{"county":"Pamlico","county_code":69,"region":"Southeast"},"type":"Polygon","arcs":[[201,-220,202,203]],"id":75},{"properties":{"county":"Sampson","county_code":82,"region":"Sandhills"},"type":"Polygon","arcs":[[204,205,-231,-255,-249,-209,206]],"id":76},{"properties":{"county":"Cumberland","county_code":26,"region":"Sandhills"},"type":"Polygon","arcs":[[207,208,-248,-247,-226,209]],"id":77},{"properties":{"county":"Clay","county_code":22,"region":"Western"},"type":"Polygon","arcs":[[210,211,212]],"id":78},{"properties":{"county":"Jones","county_code":52,"region":"Southeast"},"type":"Polygon","arcs":[[213,214,-218,-240,-230]],"id":79},{"properties":{"county":"Carteret","county_code":16,"region":"Southeast"},"type":"Polygon","arcs":[[215,216,-241,217,218,219]],"id":80},{"properties":{"county":"Union","county_code":90,"region":"Southwest"},"type":"Polygon","arcs":[[220,-224,221,-280,-286]],"id":81},{"properties":{"county":"Anson","county_code":4,"region":"Southwest"},"type":"Polygon","arcs":[[-235,222,223,224]],"id":82},{"properties":{"county":"Hoke","county_code":47,"region":"Sandhills"},"type":"Polygon","arcs":[[225,-246,-239,226]],"id":83},{"properties":{"county":"Duplin","county_code":31,"region":"Southeast"},"type":"Polygon","arcs":[[227,228,229,-243,-251,230]],"id":84},{"properties":{"county":"Richmond","county_code":77,"region":"Sandhills"},"type":"Polygon","arcs":[[231,232,-238,233,234,235]],"id":85},{"properties":{"county":"Scotland","county_code":83,"region":"Sandhills"},"type":"Polygon","arcs":[[-245,236,237,238]],"id":86},{"properties":{"county":"Onslow","county_code":67,"region":"Southeast"},"type":"Polygon","arcs":[[239,240,241,-252,242]],"id":87},{"properties":{"county":"Robeson","county_code":78,"region":"Sandhills"},"type":"Polygon","arcs":[[-250,-258,243,244,245,246]],"id":88},{"properties":{"county":"Bladen","county_code":9,"region":"Sandhills"},"type":"Polygon","arcs":[[247,248,-254,-259,249]],"id":89},{"properties":{"county":"Pender","county_code":71,"region":"Southeast"},"type":"Polygon","arcs":[[250,251,252,-260,-262,-256,253,254]],"id":90},{"properties":{"county":"Columbus","county_code":24,"region":"Sandhills"},"type":"Polygon","arcs":[[255,-265,256,257,258]],"id":91},{"properties":{"county":"New Hanover","county_code":65,"region":"Southeast"},"type":"Polygon","arcs":[[259,260,-263]],"id":92},{"properties":{"county":"Brunswick","county_code":10,"region":"Southeast"},"type":"Polygon","arcs":[[261,262,263,264]],"id":93},{"properties":{"county":"Iredell","county_code":49,"region":"Southwest"},"type":"Polygon","arcs":[[265,266,-273,-283,-279,-277,267,268,269]],"id":94},{"properties":{"county":"Rowan","county_code":80,"region":"Southwest"},"type":"Polygon","arcs":[[270,271,-284,272,273]],"id":95},{"properties":{"county":"Lincoln","county_code":55,"region":"Southwest"},"type":"Polygon","arcs":[[274,275,276,-282,-288,277]],"id":96},{"properties":{"county":"Mecklenburg","county_code":60,"region":"Southwest"},"type":"Polygon","arcs":[[278,-287,279,280,-289,281]],"id":97},{"properties":{"county":"Cabarrus","county_code":13,"region":"Southwest"},"type":"Polygon","arcs":[[282,283,284,285,286]],"id":98},{"properties":{"county":"Gaston","county_code":36,"region":"Southwest"},"type":"Polygon","arcs":[[287,288,289,290]],"id":99}],"type":"GeometryCollection"}},"bbox":[-84.32161913524656,33.83436862316734,-75.45998072610277,36.58841470495981],"transform":{"scale":[8.861727026414057e-05,2.7540736225286922e-05],"translate":[-84.32161913524656,33.83436862316734]},"arcs":[[[48459,98333],[5829,-61]],[[48371,87972],[5672,-573]],[[54043,87399],[5,315]],[[53939,74995],[29,6821],[75,5583]],[[48235,75762],[5704,-767]],[[53939,74995],[-8,-2051]],[[29260,92843],[-38,133],[-80,15],[9,210],[-29,33],[10,226],[-20,137],[47,52],[28,-47],[18,86],[46,44],[26,143],[83,157],[23,194],[-39,165],[73,117],[-12,57],[16,95],[-39,128],[46,91],[-17,277],[-19,64],[84,93],[20,108],[97,63],[46,124],[-12,87],[17,134],[-20,75],[-18,458],[21,137],[-15,167],[-31,67],[33,233],[-19,63],[14,89],[-25,59],[-33,386],[-58,104],[-1,428],[92,31],[11,196],[52,195],[11,130],[35,19],[-8,154],[17,202],[-30,166],[12,80],[122,23],[34,66],[-24,277],[21,124],[-30,136],[33,105],[858,-41],[1261,-291],[145,49],[394,-130],[996,-78]],[[34650,91742],[-38,123],[42,263],[48,96],[-9,85],[35,227],[-27,171],[14,115],[-110,206],[-3,90],[-47,-7],[-48,190],[-25,-29],[-10,206],[24,-69],[15,22],[-57,180],[31,177],[26,7],[9,71],[-40,540],[-35,114],[-37,357],[-72,132],[-95,385],[-83,140],[-22,-24],[-31,351],[-42,6],[-24,174],[-27,44],[-167,-13],[-3,589],[-52,328],[-17,419],[-216,830],[-5,105],[26,98],[-2,244],[-31,7],[-50,-238],[-1,1054]],[[33494,99508],[1986,-109],[1944,-289],[1170,-78]],[[90373,98613],[5028,2],[127,-2003],[263,-2879],[210,-2676],[266,-2447],[197,-1570]],[[87791,98626],[2582,-13]],[[90373,98613],[1743,-4477],[10,-1043],[109,-126],[292,-853],[86,-501],[311,-273],[20,79],[15,-93],[12,28],[18,-82],[18,28],[0,-60],[52,51],[-15,-57],[20,-33],[28,141],[40,-25],[-9,-52],[60,-17],[13,59],[-22,83],[56,15],[17,96],[29,33],[-2,111],[29,67],[32,-19],[14,-116],[39,64],[34,-85],[61,-15],[108,-319],[-9,-104],[-53,-82],[12,-100],[78,63],[36,176],[61,-29],[0,-221],[-39,-207],[44,-197],[31,-22],[57,72],[72,-173],[6,-354],[22,-116],[93,-103],[205,54],[40,-111],[-1,-418],[31,-193],[63,-88],[78,61],[66,-121],[-20,-218],[15,-214],[-29,-92],[-122,-163],[-15,-107],[8,-217],[111,-166],[123,-383],[90,-185],[31,-225],[21,-396],[3,-490],[48,-319],[73,-220],[228,-445],[84,-322],[35,-277],[10,-463],[-145,-1343],[-5,-629]],[[38594,99032],[716,-96],[1507,118],[520,-113],[2466,-315]],[[37850,93211],[77,508],[-148,1376],[110,208],[418,1514],[93,1429],[106,454],[9,146],[79,186]],[[87791,98626],[570,-1451]],[[83567,98379],[-12,95],[14,203],[4222,-51]],[[83567,98379],[26,-37],[-18,-118],[-68,-46],[13,-220],[-48,-6],[-6,-56],[39,-59],[60,71],[135,-310],[14,-117],[-37,-127],[-4,-219],[-64,-191],[-82,24],[-60,-593],[-44,-104],[-66,-49],[-17,-135],[34,-238],[-6,-88],[-37,-31],[-114,59],[-37,-46],[43,-179],[-26,-346],[44,-568],[-26,-867],[31,-218],[162,-406],[250,-339],[151,-15],[131,-263],[109,7],[266,-298],[134,-43],[92,-129],[97,-231],[330,-152],[91,104],[72,-32],[105,-279],[95,-98],[256,-944],[120,-238],[115,-398],[86,-184],[116,-143],[24,-101]],[[80764,98473],[142,-84],[2661,-10]],[[72468,98409],[7834,-2],[404,100],[58,-34]],[[80764,98473],[46,-162],[29,39],[8,-111],[27,51],[23,-58],[20,30],[-5,-78],[-22,-13],[41,-47],[13,-95],[-24,-29],[2,-105],[-23,-36],[45,-103],[-5,-53],[195,-95],[55,-158],[45,86],[20,-44],[-3,118],[30,21],[54,-65],[-7,-104],[130,-58],[-4,150],[52,-143],[35,-19],[32,63],[64,-168],[45,-20],[-1,-207],[27,6],[-51,-89],[14,-161],[-18,-21],[67,-135],[24,42],[10,-54],[29,13],[-9,65],[16,47],[24,-73],[18,50],[41,-70],[-40,-87],[32,-74],[-24,-127],[6,-64],[27,3],[-16,-84],[15,-68],[-50,18],[-2,-150],[-46,57],[9,-104],[-25,87],[-39,-64],[-13,-74],[-21,0],[18,-62],[-22,-97],[-22,112],[-76,-134],[-38,70],[-46,198],[-23,-68],[-71,-50],[-50,66],[-32,-140],[-59,-9],[-69,-344],[-70,-128],[-9,-93],[-44,-93],[8,-278],[56,-231],[0,-147],[-871,-6937]],[[43803,98626],[1646,-241],[3010,-52]],[[48459,98333],[-88,-10361]],[[43669,88126],[49,5796],[85,4704]],[[72468,98409],[20,-1376]],[[67682,98372],[4786,37]],[[67682,98372],[526,-8615],[-157,-585],[-14,-186],[-112,-369],[-51,-321]],[[66179,98325],[1503,47]],[[62348,98305],[3226,-32],[605,52]],[[66179,98325],[41,-85],[-29,-54],[5,-169],[-35,-17],[0,-55],[-61,62],[-35,-50],[-24,-207],[45,-35],[-12,-52],[-22,-21],[-24,84],[-2,-125],[-26,-47],[-31,33],[-53,-145],[-59,-49],[-9,51],[-79,4],[-16,-99],[-31,-27],[10,-235],[20,-3],[-62,-161],[-8,-208],[-36,-87],[-3,-129],[21,-31],[-21,-76],[8,-84],[-84,-1173],[-1,-6750],[29,-3097],[92,-249],[43,-46]],[[54288,98272],[4207,29]],[[57151,87487],[-3103,227]],[[54048,87714],[135,7776],[105,2782]],[[58495,98301],[3853,4]],[[62348,98305],[17,-584],[-78,-10520]],[[58318,87429],[177,10872]],[[88361,97175],[605,-1550],[163,-121],[22,-98],[75,-56],[89,-231],[93,52],[46,-35],[80,-264],[114,-47],[19,-138],[46,-18],[-7,-74],[48,14],[-15,-178],[17,-127],[37,-72],[75,-114],[114,58],[-11,-168],[38,-77],[137,151],[59,-72],[85,23],[-2,-79],[-29,-71],[0,-100],[145,-417],[-4,-134],[99,-54],[14,-177],[97,-320],[51,-66],[25,139],[61,-90],[71,65],[168,-152],[15,-75],[-22,-175],[29,-149],[-39,-238],[31,-106],[34,-28],[119,111],[71,220],[64,10],[4,-367],[60,-264],[-14,-246],[146,-212],[-42,-293],[18,-227],[34,-41],[105,59],[149,-13],[109,-217],[-17,-177],[-65,-102],[-36,-3],[-91,129],[-16,-460],[-131,-28],[-40,-79],[-7,-135],[127,-37],[100,-226],[203,65],[71,-354],[82,-209],[236,-45],[78,-93],[94,-211],[112,-362],[149,-599],[73,-465],[136,-223],[214,-204],[171,-800],[87,-510],[133,-498],[62,-358],[53,-947],[14,-1244]],[[88784,92361],[-425,3286],[2,1528]],[[71263,85992],[702,3438],[362,3061],[2,1554],[-67,154],[-23,302],[33,147],[60,73],[0,1181],[57,594],[99,537]],[[72488,97033],[28,138],[35,55],[55,-85],[27,-117],[96,-8],[92,-107],[120,112],[251,-181],[208,-38],[331,-341],[167,-327],[54,-39],[70,46],[107,-118],[100,23],[127,231],[74,66],[54,-44],[118,26],[333,-291],[402,63],[69,-218],[96,-891],[69,-203],[38,-55],[60,20],[62,-236],[210,-216],[24,-253],[34,-80],[68,71],[85,-38],[195,-179],[71,-216],[58,-658],[-34,-775],[-116,-204],[-59,-187],[-120,-169],[-66,-230],[-74,-509],[100,-322],[64,-505],[160,-310],[156,-96],[220,136],[323,47],[118,292],[97,36],[92,150],[299,103],[223,-890],[87,-242],[17,-301],[-6,-351],[38,-415],[313,-487],[51,-165],[12,-250],[-107,-829],[-8,-107],[18,-111],[304,-445],[83,-229],[102,-58],[139,97],[45,-211],[64,-168],[126,-61],[-52,-233],[18,-135],[38,-87],[109,-100],[82,121]],[[34650,91742],[580,1240],[109,141],[306,1213],[31,-123],[114,-108],[59,-242],[155,-5],[91,309],[119,77],[113,198],[51,-73],[80,75],[80,-73],[7,-137],[50,-134],[4,-204],[320,69],[72,-1042],[188,-734],[147,-77],[159,223],[53,154],[145,-198],[27,98],[-49,339],[40,141],[22,228],[50,56],[28,-35],[25,91],[24,2]],[[37850,93211],[33,-96],[83,-73],[22,-97],[-22,-200],[13,-137],[78,-146],[39,-169],[147,-235],[33,-107],[84,-85],[23,104],[42,21],[56,-199],[80,-42],[14,-162],[49,-78],[2,-262],[40,-178],[33,-94],[43,-9],[56,-138],[39,-22],[45,-99],[8,-107],[45,-20],[26,-90],[-51,-3274]],[[37154,80294],[-214,-161],[-107,-350],[-458,-121],[-9,88],[-84,222],[-62,38],[-44,-128],[-65,41],[-21,79],[-148,-44],[-42,45],[-61,-135],[-257,-304],[-49,33],[-13,116],[-75,138],[-95,51],[-23,73],[-63,-68],[-69,59],[-40,-144],[-60,39],[-76,-133],[-131,48],[-87,-37],[-38,-87],[1,-68],[-44,-35],[-52,73],[-37,-65],[-43,45],[-134,-62],[-37,-112],[-126,-156],[1,-66],[-21,-14],[12,-83],[-188,-246],[-8,-77],[-63,45],[-76,-26],[-48,-276],[-56,-6],[-41,-77],[-26,75]],[[32095,87353],[251,758],[81,55],[64,-87],[131,209],[13,100],[180,420],[-30,420],[19,91],[66,-7],[38,-123],[208,-250],[87,155],[75,-105],[82,22],[-19,675],[50,27],[16,183],[-59,1773],[52,128],[-14,69],[27,92],[121,13],[89,174],[177,21],[61,117],[15,-208],[69,-25],[72,-177],[188,43],[95,-403],[36,-47],[150,148],[76,-59],[88,187]],[[29260,92843],[1018,-1515],[433,-1385],[130,-327],[71,-400],[87,-264],[94,-436],[102,120],[900,-1283]],[[32095,87353],[186,-1259],[-51,-566],[-131,-318],[-252,-1378],[-519,-929]],[[27121,89061],[111,532],[106,189],[129,76],[122,230],[113,389],[13,113],[118,290],[34,-6],[214,371],[254,158],[114,233],[41,21],[19,110],[24,21],[-7,-100],[33,-141],[12,-263],[123,1],[52,-164],[58,-59],[46,-123],[50,43],[68,-113],[89,16],[78,80],[44,122],[103,-74],[91,-168],[128,-36],[16,298],[-34,109],[-109,73],[-40,134],[-25,185],[20,48],[-7,111],[-43,149],[11,103],[-96,394],[10,88],[34,50],[22,292]],[[88784,92361],[78,-564],[510,-2217],[44,-48],[36,-127],[-2,-156],[31,-57],[1,-121],[64,-147],[61,-283],[51,-20],[9,-110],[-24,-123],[35,-369],[153,-214],[147,-108],[54,-117],[-2,-123],[28,-53],[40,-33],[59,128],[84,-140],[79,2],[29,-256],[85,-109],[7,-96],[29,-67],[6,-142],[157,48],[3,-183],[54,-93],[-34,-69],[12,-125],[76,-256],[7,-164],[72,-137],[13,-339],[135,-219],[100,-367],[126,-214],[56,-291],[75,-229],[51,-338],[94,-340],[239,-480],[169,-199],[241,-1898]],[[87592,91387],[34,143],[199,79],[959,752]],[[87592,91387],[-20,-230],[17,-344],[-42,-326],[22,-151],[-65,-253],[-14,-167],[14,-471],[21,-143],[-29,-243],[4,-414],[-45,-335],[-13,-341],[-158,-295],[-32,-368],[189,-4657],[31,-131],[116,-219],[135,-66],[98,-166],[51,64],[190,34],[81,-131],[41,-191],[82,-106],[91,-29],[142,312],[76,-154],[114,-25],[79,-309],[79,-3],[29,-137],[102,29],[65,-62],[210,8],[94,-52],[79,-1721]],[[85931,87480],[197,958],[-59,506],[-21,439]],[[86048,89383],[149,195],[27,-56],[16,52],[46,-3],[-4,64],[41,10],[-42,52],[1,60],[40,31],[-30,63],[12,72],[19,-12],[23,163],[32,-46],[25,70],[8,-80],[15,35],[37,-52],[23,57],[36,-20],[-3,-122],[44,10],[9,237],[32,87],[58,16],[-6,92],[29,222],[82,38],[112,-51],[154,-203],[148,7],[27,215],[82,152],[105,69],[69,-36],[128,616]],[[25283,82375],[18,135],[86,79],[52,117],[61,22],[56,267],[7,158],[27,70],[98,-35],[91,-164],[37,-13],[45,112],[35,253],[1225,5685]],[[27121,89061],[67,-222],[54,-93],[83,85],[56,-331],[18,-269],[-39,-94],[16,-70],[-27,-93],[18,-69],[-54,-116],[-12,74],[-21,-115],[3,-59],[42,-32],[33,-214],[-62,-126],[-62,5],[4,-166],[-40,-187],[43,-216],[7,-196],[-24,-54],[12,-76],[54,-262],[166,-388],[31,-240],[325,133],[226,-772],[19,-149],[67,25],[202,-2096],[14,7]],[[38910,87217],[76,100],[210,74],[149,144],[90,153],[128,61],[78,113],[73,-50],[36,-143],[39,-21],[127,152],[66,153],[-16,440],[44,177],[89,27],[92,-188],[48,-180],[52,-26],[79,261],[25,242],[56,101],[53,-140],[-26,-278],[10,-57],[153,113],[80,-130],[129,-28],[196,97],[63,-162],[22,-281],[45,-165],[53,-35],[149,42],[74,142],[13,309],[53,292],[142,-9],[39,107],[1,88],[-56,245],[33,122],[73,-81],[71,-205],[259,-363],[133,262],[101,121],[136,84],[68,-13],[47,97],[38,0],[79,-109],[29,-111],[13,-240],[-21,-327],[36,-178],[250,-11],[88,56],[224,-132],[37,21],[56,146],[56,3],[84,-110],[24,-117],[12,-263],[92,-210]],[[38812,80655],[98,6562]],[[96464,87040],[154,-973],[256,-1955],[311,-1942],[536,-2577],[212,-1258],[134,-656],[40,-319],[653,-3690],[291,-2171],[99,-368],[406,-2091],[112,-879],[146,-1544],[185,-3076],[-29,-1117],[-102,-1205],[-102,-1732],[-73,-2838],[-91,-892],[-88,-1293],[-46,-419],[-136,-2436],[-41,-226],[-49,-783],[-42,-270],[-60,-104],[48,146],[-40,215],[-184,191],[-288,91],[-164,-47],[-546,-343],[-602,-610],[-406,-513],[-238,-163]],[[95709,79680],[674,673],[124,231],[49,197],[21,245],[-5,352],[-24,317],[-98,713],[10,409],[-30,724],[-40,308],[-108,398],[-12,143],[12,514],[-98,329],[-44,246],[31,465],[-157,800],[450,296]],[[43669,88126],[4702,-154]],[[48371,87972],[-30,-2917],[13,-163],[-32,-1494],[-43,-4365]],[[43163,80322],[-126,319],[-25,641],[-76,356],[8,373],[58,144],[36,358],[202,313],[180,113],[140,-3],[80,129],[66,295],[107,257],[-45,578],[73,580],[-27,258],[-55,179],[51,308],[-79,646],[48,220],[97,61],[17,75],[-70,480],[-161,397]],[[43662,87399],[7,727]],[[67874,88296],[749,-298],[59,18],[57,-85],[63,19],[101,-166],[193,-7],[54,-181],[236,313],[172,-397],[92,78],[189,-15],[22,-213],[60,-206],[-17,-148],[14,-168],[75,-61],[52,-293],[27,47],[20,-57],[4,-212],[53,17],[25,-54],[52,61],[12,-69],[36,51],[28,-39],[0,-54],[76,59],[21,120],[68,-37],[25,125],[41,53],[17,-53],[41,47],[28,-89],[33,7],[29,-116],[151,164],[14,-43],[-20,-39],[6,-52],[79,-40],[-12,-76],[42,-62],[44,80],[-4,156],[14,36],[14,-142],[46,-43],[-3,-47],[43,-114],[32,12],[25,99],[2,-55],[19,35],[-1,-70],[30,25],[61,-125]],[[65167,79416],[21,2147],[542,3430]],[[65730,84993],[17,17],[0,208],[33,75],[84,-157],[-11,-153],[221,-95],[60,-81],[9,-161],[23,-69],[43,148],[50,46],[205,-85],[-5,-80],[119,-2],[-3,130],[40,-18],[76,106],[377,2345],[453,-20],[57,246],[208,546],[88,357]],[[80266,87584],[284,-134],[1966,-134],[265,105],[162,-142],[309,115],[181,-45],[290,105],[2208,26]],[[85931,87480],[-107,-546],[-120,-248],[-64,-258],[2,-575],[-45,-546],[-9,-933],[7,-355],[50,-487],[252,-1414],[-5,-799],[13,-181],[76,-444],[203,-879],[708,-1656],[171,-322]],[[78924,81219],[1,172],[91,110],[37,264],[40,102],[225,72],[102,198],[121,104],[127,11],[211,-95],[143,300],[-6,120],[-23,64],[-124,54],[-91,115],[11,95],[99,27],[27,60],[-164,81],[-7,104],[46,274],[-9,105],[-165,178],[-15,355],[48,312],[-140,-66],[-29,61],[-61,318],[-44,61],[-43,-30]],[[79332,84745],[-74,152],[25,105],[-45,212],[12,187],[39,63],[-6,181],[27,128],[-53,267],[4,153],[82,167],[29,-56],[141,118],[62,-46],[68,143],[129,74],[50,-37],[37,-113],[181,-31],[1,116],[225,1056]],[[58318,87429],[2295,-112]],[[57234,74156],[-65,289],[-31,257],[16,343],[-87,230],[84,12212]],[[57151,87487],[1167,-58]],[[62287,87201],[-35,-5157],[22,-164],[-50,-77],[107,-98],[59,57],[22,-148],[-26,-159],[41,39],[50,-66],[-35,-138],[51,-114],[35,82],[357,-34]],[[59866,73664],[747,13653]],[[60613,87317],[1674,-116]],[[68460,72014],[173,1041],[764,4020],[1866,8917]],[[71263,85992],[58,-145],[50,-8],[-12,-40],[12,-177],[34,-61],[19,-203],[50,158],[47,-93],[-8,-222],[50,-76],[21,-127],[22,87],[29,-29],[22,50],[26,211],[-47,216],[-9,134],[14,24],[59,-4],[183,-490],[75,47],[16,165],[-16,57],[4,158],[35,-7],[120,-367],[50,39],[23,204],[70,-331],[-59,-473],[69,-106],[88,56],[90,-90],[-4,-233],[104,-200],[53,-258],[32,123],[21,0],[43,-145],[2,57],[88,17],[54,110],[59,25],[56,-106],[43,20],[50,-56],[298,-12],[73,-176],[83,-59],[27,106],[-6,232],[20,77],[50,-186],[83,19],[105,-138],[51,95],[51,-53],[12,154],[179,79],[42,103],[5,202],[33,2],[52,-160],[48,80],[42,-49],[56,-230],[37,51],[-17,-73],[-7,-271],[60,-52],[50,-148],[60,94],[-57,188],[59,164],[100,5],[26,167],[30,-12],[50,85]],[[21496,81271],[73,346],[86,253],[52,43],[103,248],[98,86],[17,139],[41,94],[119,56],[107,286],[59,60],[27,-72],[129,-16],[47,103],[127,76],[200,427],[146,153],[114,-246],[67,16],[83,-83],[24,8],[47,242],[63,78],[35,-139],[71,-35],[33,206],[179,398],[52,302],[98,111],[115,-87],[92,-255],[30,-27],[50,66],[57,-270],[68,-24],[42,132],[54,8],[26,-55],[195,176],[45,-198],[0,-150],[37,-70],[46,-335],[10,-187],[-17,-165],[94,-555],[156,4],[114,128],[59,-79],[163,7],[54,-100]],[[25283,82375],[7,-114],[53,-155],[-10,-377],[83,-341],[-27,-223],[368,-2232],[-37,-81],[-75,76],[4,-240],[-82,-86],[-39,-274],[0,-138],[122,-863],[159,-784],[594,-1129]],[[73272,73810],[81,497],[485,3726],[78,889],[346,1996],[380,1881],[36,1061],[28,211],[38,116]],[[74744,84187],[40,-63],[86,66],[45,-59],[-1,72],[51,34],[-7,-127],[79,-99],[-55,-154],[57,-37],[-4,-68],[41,-58],[-22,-5],[4,-75],[30,-24],[19,81],[29,-94],[19,82],[25,-56],[42,77],[-1,-67],[37,21],[8,-85],[16,31],[-6,62],[76,4],[7,-91],[77,-139],[0,-139],[32,18],[21,-54],[-2,-88],[20,-24],[-16,-40],[25,-20],[-22,-119],[38,25],[-24,-151],[36,-20],[-13,-43],[17,-85],[13,114],[6,-98],[25,-38],[24,44],[11,-56],[55,-40],[46,20],[1,45],[23,-26],[-15,-107],[51,100],[9,-113],[45,-31],[8,-75],[48,-68],[-4,-61],[21,20],[4,109],[20,-41],[-5,-47],[24,10],[6,61],[30,-72],[8,57],[21,-29],[-19,-28],[3,-56],[33,49],[18,-81],[24,48],[-1,-103],[30,-9],[6,74],[19,4],[-2,-58],[53,-47],[5,60],[75,-46],[27,-101],[33,33],[-2,67],[47,24],[2,78],[133,-173],[10,31],[30,-75],[-8,-97],[33,26],[29,-46],[-7,-136],[27,-126],[-11,-77],[-23,-3],[11,-50],[-23,12],[15,-68],[-12,-27],[26,-20],[5,-66],[21,24],[-20,-69],[52,-30],[28,-148],[-44,-14],[-74,-196],[-29,49],[-18,-131],[55,-231],[33,36],[9,-97],[-21,-29],[18,-83],[26,19],[6,-120],[17,-28],[21,49],[32,-84],[-14,-189],[-43,32],[-15,-55],[27,-18],[0,-59],[59,44],[44,-78],[486,42],[79,-218],[151,-75],[169,-310],[15,-97],[-41,-136],[70,-55],[84,-291],[74,-62],[104,48],[41,76],[69,-67]],[[28340,82685],[1530,397],[122,-90],[46,-89],[1290,0]],[[31328,82903],[283,-547],[3,-76],[42,-108],[86,-12],[111,121],[40,-8],[20,-105],[54,40],[50,-96],[75,35],[-4,-141],[98,-201],[12,-83],[57,186],[56,54],[58,-43],[3,-124],[64,-126],[2,-192],[32,-215],[39,21],[27,84],[70,0],[88,91],[78,-232],[80,46],[-4,-39],[37,-34],[10,-107],[31,-65],[61,22],[-18,-129],[17,-122],[98,-333],[-22,-131],[-58,-144],[7,-41],[41,8],[100,180],[34,-147],[37,-8],[30,-106],[68,56],[24,-271],[22,-72],[235,-341],[175,-927]],[[33777,78521],[-163,-2669],[99,-1737],[-112,-1867],[20,-65],[26,62],[27,-188],[-28,-98],[44,-66],[-20,-82],[36,-305],[35,-53],[-26,-216]],[[28373,77252],[811,3831],[-67,158],[-142,30],[-20,126],[-31,42],[1,191],[-33,276],[-110,182],[-36,132],[-83,87],[-44,-25],[-71,92],[-49,139],[-159,172]],[[93649,82151],[260,75],[1119,-91]],[[95028,82135],[24,-459],[60,-605],[81,-497],[59,-233],[90,-255],[72,-119],[295,-287]],[[95709,79680],[-977,-1041],[-250,-208],[-98,-175],[-93,-262],[-141,-597],[-38,-335],[-58,-1348],[-59,-347],[-197,-592],[-101,-1190],[-43,-1831],[35,-2064],[-90,-1136],[76,-1311],[-78,-633]],[[89426,79594],[154,5],[294,-255],[269,5],[670,485],[474,262],[285,86],[300,253],[250,363]],[[92122,80798],[168,128],[408,179],[421,313],[297,358],[233,375]],[[21496,81271],[192,-49],[10,67],[-43,173],[5,88],[38,55],[106,-116],[128,-301],[44,51],[30,149],[137,89],[27,155],[59,63],[37,-211],[38,-70],[14,-244],[41,-186],[40,-360],[7,-362],[-43,-350],[23,-191],[156,-31],[47,-136],[83,27],[13,78],[-24,232],[18,123],[22,72],[54,22],[37,166],[24,18],[16,-258],[88,-350],[99,-95],[153,-346],[-1,-100],[-54,-140],[-7,-247],[125,-156],[69,-275],[46,-78],[35,40],[-42,330],[-7,231],[19,90],[170,-139],[-4,178],[52,140],[58,-16],[153,147],[49,-14],[44,-93],[93,38],[35,-146],[13,-359],[-36,-15],[-45,194],[-37,-10],[-3,-74],[70,-322],[0,-79],[63,-60],[8,-141],[-17,-104],[17,-106],[0,-302],[-32,-208],[93,-270],[-23,-51],[-54,47],[-13,-127],[-43,-131],[50,-70],[22,-128],[77,-166],[13,-189],[67,-57],[89,-257],[21,41],[-10,102],[19,75],[71,-148],[65,116],[108,-85],[-85,-105],[26,-142],[-50,-124],[15,-129],[-16,-95],[28,-12],[25,64],[25,-156],[18,-22],[19,82],[19,-118],[-3,-198],[-23,-32],[-20,78],[5,-321],[24,-31],[-62,-161],[44,-173],[-9,-157],[24,-127],[-15,-577],[59,-213],[-20,-106],[13,-112],[-10,-119],[10,-66],[34,-30],[-29,-138],[-20,-7],[-11,67],[-69,-93],[38,-145],[34,-290],[4,-139],[-20,-38],[132,0]],[[20495,77822],[22,168],[32,8],[178,378],[37,194],[62,5],[178,339],[492,2357]],[[20495,77822],[49,-409],[54,-122],[-2,-218],[112,-98],[75,-191],[-95,-227],[-17,-184],[-62,-231],[-36,-28],[6,-188],[52,-52],[3,-94],[30,5],[8,-134],[-59,-302],[101,-85],[37,69],[95,1],[122,-335],[112,2],[65,-138],[66,-309],[-13,-106],[40,-182],[80,-100],[98,-271],[-21,-283],[91,-83],[-10,-336],[12,-92],[-25,-200],[34,-450],[49,-107],[-22,-238],[63,-78]],[[15344,71042],[-14,152],[15,198],[105,561],[42,56],[33,258],[105,29],[33,190],[-5,218],[152,102],[46,81],[-53,346],[28,298],[-32,128],[7,186],[157,70],[67,109],[52,224],[-18,81],[-63,-27],[-35,121],[63,324],[-79,419],[12,103],[-12,146],[-74,144],[34,56],[-23,273],[-49,29],[-26,71],[2,69],[86,26],[22,-81],[91,-16],[40,108],[-31,271],[36,278],[58,1],[50,123],[116,67],[52,87],[150,-185],[100,70],[68,-120],[15,-152],[39,-2],[29,-167],[54,-54],[18,-113],[46,-4],[65,-386],[70,79],[10,59],[120,73],[23,66],[-36,300],[78,272],[53,61],[38,160],[36,8],[29,393],[80,157],[34,173],[-14,86],[-59,11],[-46,138],[3,387],[67,132],[38,290],[38,-6],[124,154],[79,-18],[45,59],[8,123],[112,106],[18,105],[158,122],[104,182],[2,193],[75,31],[74,114],[5,62],[34,-12],[109,159],[52,263],[59,110],[46,12],[53,138],[46,6],[76,149],[88,11],[86,206],[111,108],[65,-210],[108,-131],[19,-97],[0,-198],[159,-313],[15,-141],[116,-24],[8,-119],[-135,-304],[-1,-201],[-57,-96],[-18,-151],[23,-41],[-6,-43],[-70,-167],[-11,-166],[23,-215],[65,-52],[30,-165],[-75,-511],[7,-230],[122,-96],[82,57],[138,-36],[33,-65],[9,-160],[205,-191],[95,363],[105,182],[111,122],[64,-34],[32,104],[59,69],[45,-20],[31,66],[55,6]],[[78080,78816],[712,2156],[-1,67],[88,62],[23,111],[22,7]],[[78924,81219],[48,-423],[33,-124],[335,-447],[197,-393],[330,-393],[158,-250],[154,-24],[100,-244],[15,-115],[-81,-444],[32,-68],[63,101],[96,-33],[42,-267],[-35,-52],[-8,-78],[26,-193],[38,-100],[-58,-176],[-6,-94],[86,-301],[-118,-27],[0,-73],[55,-189],[-73,40],[-15,-125],[47,-323],[119,-253],[107,-95],[72,9],[59,255],[36,51],[189,-59],[62,-76],[109,243],[20,-48],[28,-361],[27,-108],[42,-28],[64,125],[53,-56],[33,137],[49,68],[116,-310],[13,130],[43,39],[14,99],[58,-1],[8,194],[82,-108],[74,82],[10,63],[-48,131],[5,69],[67,-152],[53,-34],[36,76],[16,143],[127,-60],[51,-440],[50,-60],[79,6],[-48,-420],[51,-7],[7,-280],[-42,-177],[54,-66],[17,-125],[-16,-144],[39,-173],[-25,-28],[-61,104],[-82,-82],[5,-153],[60,-211],[-98,-228],[-60,17],[58,-241],[-6,-97],[-45,-138],[98,-156],[78,-9],[153,176],[63,-22],[57,-121],[59,152],[57,28],[50,124],[34,362],[33,-3],[44,-147],[20,140],[100,201],[129,69],[9,110],[113,239],[0,129],[73,154],[152,-53],[110,-172],[68,-473],[80,-187],[26,-320],[103,-149],[-83,-242],[37,-275],[-52,-189],[-20,-229],[10,-90],[80,-88],[18,-88],[-37,-134],[-69,-56],[-6,-78],[36,-103],[87,-86],[-50,-99],[4,-72],[180,-72],[83,102],[167,409],[283,915],[26,259],[-53,561],[-1,190],[18,146],[53,115],[97,39],[174,-117],[42,-86],[68,-283],[176,-355],[82,-47],[144,81]],[[78665,72072],[10,1742],[59,298],[23,1079],[-751,3393],[74,232]],[[65167,79416],[671,-776],[680,-920],[366,-1379],[461,-216],[33,-765],[62,-92],[105,-49],[51,-292],[20,-25],[132,-97],[49,99],[67,-26],[2,-89],[29,-34],[110,-433],[44,-36],[14,-136],[85,-164],[105,-528],[36,-252],[15,-281],[153,-534],[3,-377]],[[61109,73831],[619,-77],[236,60],[275,2172],[525,-332],[90,464],[104,106],[136,429],[183,816],[173,1645],[-52,-154],[-45,-26],[14,552],[-30,108],[3,97],[-56,-77],[-70,99],[-49,200],[-31,-29],[9,-123],[-19,-81],[-70,-117],[-22,-292],[-26,91],[-42,24],[-183,340],[82,110],[6,149],[45,100],[-18,67],[-38,-6],[28,245],[-71,191],[70,642]],[[62885,81224],[376,178],[363,-71],[951,-1237],[592,-678]],[[43163,80322],[59,-118],[53,4],[139,268],[-10,204],[26,143],[69,89],[56,-49],[30,-110],[28,-348],[170,-671],[270,-546],[52,-473],[-6,-76],[-90,-206],[-9,-118],[14,-131],[125,-293],[178,-244]],[[40951,80484],[1072,-123],[1140,-39]],[[87063,77837],[157,-113],[368,0],[334,107],[352,219],[631,590],[298,692],[104,162],[119,100]],[[89426,79594],[49,-954],[384,-1767],[-77,-263],[-23,-521],[-139,-579],[81,-569],[34,-526],[109,-306],[73,-510],[-588,-2737],[-6,-3191]],[[84432,67833],[-25,181],[25,331],[77,111],[58,11],[-64,233],[23,139],[-18,200],[66,136],[14,198],[93,103],[-36,240],[46,228],[89,113],[16,209],[48,204],[-10,311],[128,197],[-16,76],[3,159],[-57,146],[-52,251],[80,383],[59,126],[46,12],[48,123],[8,88],[-33,83],[2,141],[-52,187],[57,245],[6,153],[39,91],[-9,72],[27,17],[0,104],[20,-8],[-7,46],[29,48],[7,-52],[29,20],[2,104],[70,12],[26,93],[22,-37],[3,65]],[[85319,73726],[126,122],[128,342],[84,419],[27,300],[46,250],[12,292],[40,194],[99,190],[97,-7],[21,43],[81,499],[12,330],[38,107],[189,351],[303,379],[263,235],[178,65]],[[28373,77252],[-16,-132],[133,-334],[49,39],[56,-90],[110,-11],[11,-207],[-32,-103],[42,-160],[-20,-164],[10,-94],[93,64],[69,-121],[43,94],[27,-106],[52,-20],[61,-312],[15,-264],[100,-206],[70,-272],[15,-190],[134,-284],[72,-279],[799,-971],[83,-466],[70,-68],[-42,-122],[214,-391],[110,204],[509,-1734],[85,-23],[77,77],[235,54],[351,10],[192,105],[290,54],[28,-36],[36,-384],[203,-105],[168,-202],[117,-246],[74,38],[163,-62],[63,300],[85,70]],[[26835,77182],[487,1440],[211,-241],[40,-152],[3,-286],[44,-56],[1,-63],[272,-146],[58,46],[33,-88],[73,-40],[27,-147],[169,43],[120,-240]],[[44317,77647],[723,861],[1313,8],[1,1091],[724,-4],[1201,-570]],[[48279,79033],[-44,-3271]],[[48235,75762],[-118,-6982],[-109,-8090]],[[43585,69342],[11,309],[57,190],[26,311],[-43,225],[-198,391],[-52,215],[26,295],[109,200],[-9,243],[-92,634],[-53,145],[-83,-17],[-22,79],[63,286],[59,106],[51,-96],[93,-482],[22,-33],[76,18],[103,339],[94,-170],[26,-130],[34,-17],[50,137],[28,557],[30,175],[94,-4],[96,-253],[87,-120],[65,17],[54,143],[27,324],[-49,503],[-52,108],[-179,170],[-66,173],[17,148],[75,228],[174,42],[171,-268],[52,-20],[37,56],[52,281],[-108,638],[8,205],[53,243],[11,153],[-78,410],[13,452],[-16,203],[-47,237],[-117,117],[-48,209]],[[26835,77182],[39,-160],[31,-12],[5,-120],[61,-184],[-13,-201],[78,-140],[-36,-248],[52,-168],[39,-256],[66,-107],[49,-385],[-42,-161],[54,-106],[-3,-163],[23,-114],[10,-298],[-60,-279],[-4,-129],[-51,-306],[-8,-405],[-33,-178],[-150,-313],[-80,-42],[-77,-333],[4,-66],[-96,-211],[-77,-32],[-121,76],[-52,-117],[-21,-161],[-77,-243],[1339,-3149],[10,-270],[390,-3981],[119,-821]],[[23089,67905],[56,-22],[44,-129],[97,-54],[53,235],[104,147],[15,120],[46,2],[84,161],[75,42],[60,160],[88,98],[155,386],[49,-2],[97,502],[7,138],[82,86],[8,95],[74,94],[-8,72],[74,357],[40,69],[20,200],[-93,157],[-13,171],[51,122],[-11,12],[30,78],[-5,77],[40,140],[75,107],[48,5],[-25,200],[96,105],[84,300],[6,128]],[[24692,72264],[142,23],[40,281],[80,83],[99,219],[28,394],[28,13],[52,-107],[31,61],[176,-97],[21,77],[253,97],[138,215],[80,314],[29,365],[-15,60],[74,210],[92,-7],[68,-79],[50,-156],[0,-106],[52,-60],[86,84],[17,131],[106,181],[-11,159],[18,125],[-8,211],[13,106],[-28,353]],[[26403,75414],[61,133],[56,12],[71,189],[50,25],[66,198],[1,202],[-95,231],[-2,84],[224,694]],[[61109,73831],[-37,-910],[-241,-1763],[-58,-772],[-158,-1461],[-511,-4434],[909,-979]],[[53777,61021],[30,3087],[78,3955],[46,4881]],[[53931,72944],[3439,28],[2,237],[-130,155],[-18,74],[15,290],[-19,261],[14,167]],[[57234,74156],[1886,-579],[746,87]],[[59866,73664],[1243,167]],[[73272,73810],[67,-187],[179,-169],[624,-1076],[27,-226],[-14,-117],[339,-3200],[662,-1917]],[[73326,63115],[-1,457],[-1986,32],[-650,420],[-82,-445]],[[69169,68846],[31,135],[73,130],[410,302],[1598,1966],[1209,1578],[167,92],[102,124],[235,-213],[95,-221],[183,1071]],[[21587,72028],[54,49],[12,-65],[42,15],[197,216],[90,-221],[87,137],[43,-14],[34,-150],[117,-207],[25,-212],[84,-167],[8,-174],[-92,-344],[33,-194],[-1,-217],[66,-269],[28,-694],[95,-60],[50,-246],[102,-248],[250,-131],[63,-144],[109,-429],[6,-354]],[[23089,67905],[-59,-67],[-39,-151],[-54,-77],[-69,-451],[120,-264],[37,-244],[9,-74],[-69,-352],[5,-328],[35,-88],[16,-283],[60,-48],[55,-170],[1,-98],[-33,-54],[27,-154],[-11,-95],[89,-153],[-1,-135],[-176,-192],[-19,-206],[-63,-81],[-47,-215],[11,-144],[445,-1130],[352,-232],[586,-941]],[[16218,66945],[108,213],[41,180],[41,-5],[115,168],[36,112],[-2,102],[63,88],[65,-69],[46,-233],[138,-102],[16,-70],[73,-28],[32,47],[100,-126],[25,20],[78,116],[1,85],[46,164],[60,-16],[31,73],[117,82],[68,-67],[111,107],[66,101],[20,113],[20,-26],[-17,157],[63,59],[11,79],[91,-97],[12,67],[34,22],[-41,55],[46,88],[16,147],[52,-186],[37,7],[28,-66],[76,70],[33,273],[24,23],[-53,44],[41,74],[-25,141],[52,-23],[138,104],[31,-32],[15,-125],[64,-131],[177,-48],[6,165],[-93,158],[105,5],[3,93],[439,608],[979,1331],[73,9],[48,176],[64,95],[65,18],[63,153],[180,-65],[36,-69],[82,73],[44,-76],[93,-40],[124,125],[14,280],[108,-78],[81,114],[32,-61],[104,-5],[38,128],[54,58],[128,-4],[79,161]],[[15344,71042],[28,-34],[-4,-87],[31,-89],[-8,-86],[65,-122],[-10,-91],[32,-82],[-30,-141],[26,-162],[-33,-154],[7,-104],[-15,-36],[-22,37],[-13,-76],[21,-246],[-22,-120],[40,-40],[7,-114],[47,-131],[75,65],[67,143],[108,1],[39,68],[62,-71],[24,-266],[89,-361],[-11,-93],[20,-183],[-42,-140],[94,-257],[37,-198],[-19,-287],[27,-183],[-10,-170],[-27,-37],[194,-250]],[[16218,66945],[-45,-187],[128,-253],[-14,-122],[67,-188],[-30,-210],[73,-236],[-9,-102],[44,-266],[128,71],[26,-71],[2,-642],[59,-114],[19,93],[95,165],[49,-63],[49,50],[12,66],[69,28],[56,143],[41,-11],[23,-82],[3,-278],[66,-240],[20,-301],[33,-181],[200,-302],[12,-166],[32,-98],[-16,-137],[88,-69],[56,-312],[-78,-191],[-52,-242],[73,-201],[56,-339],[-3,-82],[-16,-113],[-74,-128],[-70,-221],[25,-217],[-76,-438],[27,-129],[-42,-202],[6,-136],[-83,-368],[-33,-341],[-48,-172],[67,-44],[0,-146],[96,-311],[21,-444],[27,-186],[147,-246],[31,-1],[121,-270],[88,10],[28,-85]],[[12045,67581],[-33,355],[59,122],[-40,240],[23,111],[110,155],[38,167],[146,-60],[69,35],[91,-92],[65,84],[104,-34],[137,176],[97,517],[81,72],[57,266],[-2,207],[63,192],[260,23],[102,100],[81,-58],[34,126],[76,33],[80,140],[68,37],[143,371],[115,145],[125,-116],[122,100],[84,-142],[131,49],[150,-234],[68,32],[198,-306],[54,19],[96,160],[147,402],[100,67]],[[33715,71237],[198,13],[107,229],[97,-174],[94,60],[104,225],[166,-46],[134,157],[49,238],[282,-208],[100,268],[144,219],[85,-82],[200,62],[123,112],[76,-30],[69,124],[104,30],[40,-70],[-8,-275],[22,-322],[118,-340],[15,-437],[59,-161],[83,-84],[44,-135]],[[31463,63023],[310,1377],[873,2754],[731,3048]],[[33377,70202],[62,-33],[59,89],[7,177],[-36,211],[57,171],[41,302],[44,88],[104,30]],[[74715,66009],[441,909]],[[75156,66918],[1337,2549],[306,500],[493,1442],[230,-30],[38,253],[36,58],[234,-121],[82,220],[40,233],[-1,182],[21,90],[171,-3],[62,143],[13,133],[447,-495]],[[78665,72072],[1076,-1199],[-3,-111],[-107,-315],[1,-104],[53,-222],[50,-7],[26,-91],[75,-78],[93,46],[173,-116],[92,41],[157,-285],[-27,-109],[13,-92],[114,15],[1,-88],[41,-70],[92,-64],[75,-285]],[[69169,68846],[118,-98],[34,-127],[-10,-62],[36,-16],[-16,-40],[18,-76],[-11,-18],[60,-45],[41,-136],[47,-19],[4,49],[12,-38],[4,-608],[413,-3391],[688,-642]],[[70607,63579],[-1020,-6090],[9,-933],[46,-14],[65,-155],[-24,-179],[-129,-298],[-50,-233],[49,-278],[-23,-131],[68,-7],[7,-213],[-66,-104],[-17,70],[-53,-110],[-35,50],[-20,-54],[-55,22],[-47,-111],[-60,49],[-29,-99],[-110,44],[-9,-127],[-30,38],[-108,-45],[-21,79],[-17,-61],[-26,20],[-23,-81],[16,-193],[-293,-475],[-74,3],[-101,182],[-110,-21],[-96,-360],[-161,-5],[-185,-996]],[[63337,61178],[2588,6452],[67,170],[14,106],[84,129],[55,-83],[901,1536],[1414,2526]],[[68460,72014],[-23,-162],[60,-82],[24,-268],[3,-307],[19,-98],[41,-4],[-22,-95],[5,-205],[-33,-112],[-1,-199],[-28,-66],[56,-58],[28,-110],[55,-16],[2,-200],[44,-119],[-22,-94],[22,-24],[12,-157],[84,-64],[46,146],[44,2],[27,-229],[-13,-285],[16,-155],[68,-197],[36,1],[-17,-34],[9,-40],[145,-7],[22,70]],[[12045,67581],[68,-39],[116,35],[256,-113],[95,-398],[38,-53],[43,43],[87,-127],[23,-132],[81,-97],[-140,-366],[-16,-232],[-75,-195],[8,-194],[28,-100],[69,-37],[66,38],[12,-122],[47,-24],[55,-194],[12,-180],[-49,-154],[-8,-150],[63,-225],[-18,-115],[-53,-118],[-35,-266],[26,-104],[-14,-125],[13,-223],[86,-192],[101,-89],[52,-373],[-14,-122],[37,-88],[44,-336],[-100,-300],[12,-127],[-22,-112],[-65,-26],[18,-238],[-31,-56],[-10,-264],[-140,-278]],[[4162,59045],[112,140],[8,111],[69,161],[136,90],[88,-20],[47,89],[68,463],[63,155],[-12,130],[132,290],[110,508],[45,14],[25,71],[173,28],[97,-112],[187,207],[138,40],[126,285],[16,144],[61,152],[47,14],[44,136],[168,194],[85,243],[14,148],[182,101],[103,-153],[32,101],[86,74],[146,-107],[95,57],[25,97],[51,60],[70,-17],[75,89],[80,-66],[57,6],[29,60],[218,-66],[61,52],[131,-141],[94,73],[16,91],[60,-74],[83,151],[30,-12],[118,275],[71,-33],[36,-135],[33,-21],[132,-432],[138,95],[60,-31],[16,54],[154,-80],[117,72],[110,-41],[115,35],[51,-108],[210,17],[41,123],[102,66],[76,424],[-2,107],[69,140],[10,116],[95,87],[26,113],[45,47],[24,179],[38,72],[70,286],[153,-60],[106,37],[23,93],[59,32],[106,224],[110,91],[64,211],[18,169],[121,44],[60,155],[53,-39],[109,334],[78,481],[81,51],[35,108],[31,-32],[48,59],[139,-89],[125,-316],[22,66],[38,-20],[85,76],[46,149],[37,418],[81,54],[21,102],[83,70],[43,267],[134,146],[13,119],[35,52]],[[84432,67833],[110,105],[2163,-13]],[[80472,57540],[15,253],[-23,331],[111,212],[15,125],[-22,128],[13,266],[79,54],[-26,1031],[105,433],[-111,166],[-15,374],[21,251],[546,1260],[163,-138],[320,98],[-48,96],[15,122],[-18,10],[0,88],[29,69],[-41,221],[-79,-166],[-48,63],[-1,131],[-57,42],[-38,-62],[-18,189],[59,218],[-34,83],[-54,-97],[-32,45],[35,252],[-45,-59],[1,-134],[-84,62],[4,68],[22,-7],[-7,201],[20,3],[-29,160],[-23,28],[-2,-114],[-14,-12],[-11,82],[-8,-52],[-49,47],[-54,227],[-44,-122],[-15,12],[3,85],[-75,29],[25,80],[22,-12],[-5,40],[53,-51],[23,65],[-63,111],[14,273],[22,66],[-12,88],[-51,-5],[-56,240],[-45,-14],[-27,108],[-26,-4],[-10,142],[-32,-84],[-29,6],[-67,162],[15,126],[-23,688],[-69,266],[38,148],[60,-13],[43,54],[11,72],[-58,178],[32,35],[-4,225],[-54,95],[-29,-112],[-28,38],[-12,275],[-80,92],[-24,-68],[-31,26],[-28,227],[20,51],[-17,78],[16,198],[76,117],[-6,83],[27,199],[126,-148],[37,10],[5,125],[-22,175],[-31,44],[11,251]],[[80660,68938],[26,127],[88,107],[83,-102],[1376,-2094],[545,-735],[1654,1592]],[[86705,67925],[1040,-3],[1578,-251]],[[89323,67671],[1544,-272],[-323,-2960],[127,-143],[64,53],[44,-44],[75,93],[59,-167],[94,12],[48,78],[68,-123],[83,-3],[107,-99],[52,71],[105,-130],[87,185],[3,86],[30,82],[-24,89],[66,73],[0,106],[37,59],[-22,42],[50,81],[-44,74],[36,20],[0,211],[18,8],[-2,86],[-22,-3],[-21,104],[31,-13],[-15,100],[35,-23],[11,368],[101,102],[76,238],[-30,61],[17,94],[-33,237],[17,40],[50,-79],[1,278],[67,5],[-64,203],[38,143],[-45,96],[-5,108],[12,121],[92,-10],[-4,60],[-58,109],[2,61],[35,59],[50,-102],[35,0],[133,120],[67,119],[44,-8],[114,-418],[82,72],[58,-40],[-28,-335],[11,-111],[49,-57],[129,-5],[48,-252],[30,-48],[58,12],[68,189],[112,-115],[167,119],[64,-84],[141,-334],[75,-69],[56,63],[41,196]],[[93597,66610],[1423,0],[16,-228],[100,-389],[7,-168],[-18,-138],[30,-37],[2,-91],[63,-269],[66,-116],[-21,-887],[122,-945],[1333,-14149]],[[96720,49193],[-263,-287],[-61,-5],[-382,-441],[-860,-1118],[-495,-742],[-349,-666],[-228,-534],[-220,-691],[-34,-407]],[[88051,54956],[-218,1140],[-227,862],[-20,163],[-6,400],[-25,200],[-143,438],[-92,436],[-24,247],[49,442],[-5,341],[24,314],[-44,132],[-188,261],[-44,308],[0,311],[59,256],[109,106],[132,-7],[225,-132],[602,-29],[146,81],[74,135],[72,254],[121,717],[0,167],[-23,97],[-124,166],[-25,158],[-57,54],[-41,138],[-98,-80],[-51,199],[45,84],[-5,48],[-57,43],[-83,-168],[-61,88],[0,226],[-71,7],[0,-67],[-28,-61],[-49,-22],[-76,74],[-8,108],[61,147],[6,196],[-101,140],[-132,35],[-111,142],[-273,605],[-138,557],[-62,392],[68,649],[-14,181],[-415,1290]],[[73528,55752],[32,125],[31,323],[-44,476],[-6,390],[-93,276],[-54,62],[-45,209],[-35,65],[-25,325],[1,1357],[29,1125],[7,2630]],[[73326,63115],[804,1597],[585,1297]],[[74715,66009],[119,-86],[75,-212],[32,-192],[-22,-227],[64,-257],[165,-236],[379,-1206],[82,-131],[127,-534],[117,-33],[94,-117],[111,-345],[118,-177],[60,-355],[90,-259],[165,42],[58,-94],[30,16],[10,-54],[43,26],[8,-76],[55,2],[-2,-103],[28,-3],[4,-69],[-29,-136],[35,-72],[44,44],[61,-26],[26,52],[37,-95],[42,34],[-40,-247],[13,-29],[-63,-87],[59,-114],[-66,-256],[11,-52],[42,-3],[2,-69],[54,-87],[-4,-80],[15,16],[2,-45],[-20,-106],[23,16],[-2,-96],[27,-143],[52,-95],[-4,-138],[21,-33],[21,-183],[-29,-171],[98,-167],[-19,-81],[12,-117],[50,-35],[-42,-227],[36,-61],[10,107],[40,-48],[-30,-217],[56,29],[-26,-220],[9,-274]],[[28815,48882],[-2271,239]],[[23199,59312],[163,-259],[100,278],[206,1081],[-24,178],[-81,267],[3,323],[731,298]],[[24297,61478],[206,-347],[610,493],[666,41],[93,101],[24,100],[52,-41],[23,141],[51,82],[8,159],[70,40],[62,114],[92,-264],[26,-171],[49,59],[39,-54],[-9,-92],[85,-204],[52,-252],[1482,631],[-16,94],[31,204],[-3,112],[86,190],[2,163],[49,180],[-3,125],[15,81],[47,55],[17,181]],[[28203,63399],[64,-41],[70,63],[95,-22],[66,130],[-4,183],[29,154],[54,24],[43,-72],[19,119],[76,86],[88,338],[178,189],[60,-257],[61,-2],[56,-107],[57,-9],[137,201],[50,-156],[-15,-85],[24,26],[-25,-86],[16,-40],[-14,-79],[18,28],[-5,-71],[43,-88],[0,-94],[33,2],[34,-273],[22,-44],[23,89],[55,-167],[55,9],[6,49]],[[56101,61132],[21,72],[104,49],[49,138],[112,-47],[104,166],[44,165],[-137,354],[1,48],[106,3],[120,156],[-5,120],[46,54],[68,-16],[105,84],[26,-121],[-93,-193],[-17,-122],[9,-99],[61,-52],[105,-248],[111,45],[244,744],[23,195],[-17,309],[16,94],[132,-76],[99,19],[30,-49],[14,-58],[-19,-171],[-68,-240],[29,-130],[97,165],[169,120],[15,181],[-31,291],[2,150],[172,143],[34,166],[287,693],[90,504],[87,207],[191,31],[76,158],[37,-36],[35,-163],[133,31],[81,-181],[246,-293],[217,-550],[9,-407],[55,-276],[0,-278],[91,-184],[147,-531],[104,-191],[187,-41],[91,-96],[86,-172],[152,-479]],[[33780,48262],[-4965,620]],[[28815,48882],[94,1512],[643,4902],[40,3148],[54,1565],[26,3387]],[[29672,63396],[-3,105],[25,36],[65,-259],[48,-34],[105,-347],[93,33],[152,-214],[157,112],[19,82],[7,-60],[160,66],[17,-68],[102,44],[115,168],[30,-14],[-3,-115],[48,-91],[139,79],[20,-49],[-18,-138],[74,-139],[57,-1],[73,158],[264,64]],[[12811,61013],[18,-132],[233,-59],[38,-282],[-6,-198],[198,-86],[57,-103],[7,-85],[-28,-157],[43,-189],[-19,-125],[21,-88],[-15,-332],[70,-29],[104,83],[146,-59],[182,-212],[32,-198],[2,-148],[120,-28],[-2,-494],[26,-16],[25,-120],[87,-57],[27,-91],[108,-37],[24,-55],[5,-101],[91,-206],[23,-600],[-9,-172],[40,-17],[139,-297],[-1,-79],[40,-119],[203,-97],[104,-151],[37,-156],[42,-52],[44,-406],[103,-205],[-6,-245],[67,-30],[80,-355],[-1,-652],[112,38],[1,-89],[38,-24],[19,-245],[102,-19],[60,-78],[32,64],[19,-86],[37,-1],[77,-411]],[[14816,43327],[-1127,-974]],[[11081,54349],[-8,222],[51,216],[-8,127],[56,260],[-42,216],[7,327],[-42,258],[11,224],[-93,286],[30,157],[34,46],[-12,69],[-33,10],[-60,139],[11,167],[-36,178],[-51,-37],[-51,61],[-37,555],[71,383],[-19,62],[86,1046],[69,191],[102,56],[55,-176],[157,-167],[67,228],[30,274],[59,-4],[76,181],[61,-31],[78,223],[-18,107],[29,173],[101,151],[35,145],[81,59],[-4,98],[32,166],[87,-4],[138,192],[56,183],[50,-33],[58,94],[129,-6],[94,-276],[131,46],[112,-178]],[[61013,63512],[2324,-2334]],[[63337,61178],[216,-111],[17,-67],[14,-441],[123,-204],[175,-14],[50,-204],[29,-240],[33,-35],[5,-414],[127,-356],[133,-137],[63,-255],[21,-206],[57,-115],[12,-240],[71,-121],[-26,-174],[45,-169],[49,-70],[34,-161],[20,-249],[-8,-116],[52,-287],[80,-78],[111,-222],[43,-181],[31,-531],[25,-120],[43,-17],[9,-204],[131,-187],[18,-106],[87,-67],[94,-315],[-6,-73],[38,-210],[-33,-244],[-34,-68],[-17,-172],[20,-76],[-65,-155]],[[57978,53482],[554,1710],[213,762],[1366,4381],[273,952]],[[60384,61287],[629,2225]],[[4162,59045],[85,-335],[117,-104],[70,54],[169,562],[63,43],[141,-177],[144,60],[101,-100],[58,-164],[40,-283],[242,173],[77,-161],[71,84],[125,-14],[45,-159],[80,-78],[23,41],[23,177],[-3,145],[38,69],[292,-449],[205,-71],[284,211],[108,-166],[110,-23],[63,59],[254,-168],[104,-125],[67,2],[51,-162],[92,-36],[52,-139],[51,35],[27,105],[8,415],[22,68],[117,-64],[104,-192],[58,-16],[52,-270],[39,-56],[94,143],[80,24],[62,118],[37,-1],[5,-317],[-43,-256],[43,-29],[1,-176],[30,-121],[-6,-108],[-22,-13],[-22,-162],[9,-46],[-79,-659],[-27,-66],[26,-148],[-231,-715],[-42,-308],[-44,-136],[-85,-46],[-111,-179],[-77,35],[-68,-109],[-105,-49],[-90,-170],[-12,-85],[-100,-13],[-30,-118],[-44,-50],[-60,-231],[-8,-271],[-12,-94],[-23,-17],[-11,-313],[118,-324],[35,-150],[-5,-125],[22,-76]],[[3299,52929],[64,154],[23,190],[-55,174],[-6,117],[-82,58],[-20,65],[13,335],[62,399],[-24,123],[-55,35],[26,206],[-47,176],[13,95],[55,78],[96,48],[98,399],[83,235],[-10,275],[-32,174],[34,233],[-45,61],[-21,207],[-51,66],[-56,432],[106,31],[96,314],[46,66],[40,281],[-15,121],[54,39],[29,191],[35,-36],[15,62],[45,-14],[44,280],[86,-31],[-10,196],[23,6],[1,90],[74,-44],[-14,74],[26,17],[22,101],[3,169],[64,-25],[30,-107]],[[23199,59312],[-117,-684],[-37,-90],[-10,-135],[79,-442],[-27,-252],[35,-192],[-1,-308],[46,-131],[-20,-207],[75,-142],[27,-134]],[[22206,49253],[-66,36],[-14,-70],[-28,0],[-10,-60],[21,-79],[-77,-185],[-40,-5],[-126,372],[11,104],[53,63],[-26,229],[-51,161],[13,148],[-68,172],[-40,-6],[-66,-213],[13,-84],[-23,-64],[-83,-103],[-38,14],[-112,-190],[-40,-160],[14,-86],[-30,-45],[-25,-205],[44,-95],[-74,-126],[-7,-163],[-40,-99],[5,-85],[-59,-91],[-126,4],[-72,-66],[-3,109],[66,213],[-33,171],[-66,15],[-87,-123],[-78,-13],[-31,66],[-41,-76],[-56,18],[-8,-164],[-60,-69],[-31,-116],[-1,-95],[-103,133],[-38,-129],[-102,28],[-33,-141],[-88,-122],[-99,-38],[-9,201],[-110,117],[-94,-135],[-12,-106],[29,-154],[-46,-69],[-55,76],[-58,-141],[-6,-125],[-72,-5]],[[17791,57677],[1,10]],[[17792,57687],[30,33],[40,228],[80,56],[24,150],[108,226],[50,215],[42,17],[73,175],[285,23],[83,204],[84,-88],[62,-167],[78,91],[18,-103],[80,-107],[25,-182],[131,-124],[97,-186],[38,154],[43,-4],[67,130],[114,-239],[54,-43],[37,80],[67,-144],[156,-106],[34,258],[68,-5],[7,196],[139,32],[-1,-129],[27,-1],[44,-342],[-49,-220],[98,-132],[27,29],[30,-215],[-24,222],[61,10],[11,486],[-82,22],[18,257],[197,-38],[523,92],[108,204],[65,-43],[17,205],[80,103],[15,102],[128,78],[43,74],[37,176],[44,18],[68,144],[70,-88],[55,48],[49,-129],[16,53],[143,-60],[73,-220],[91,-81],[115,-14],[-45,104],[-41,308],[11,124],[-25,156],[28,95],[0,102],[97,-3],[45,194],[133,-106],[10,53],[38,-5],[23,84],[-10,131],[35,163],[63,1],[734,-1157]],[[53777,61021],[2324,111]],[[56101,61132],[-14,-151],[116,-272],[58,-302],[-34,-199],[-75,-146],[-71,-396],[-92,-2],[38,-130],[-36,-156],[28,-48],[19,48],[6,-171],[34,21],[-6,-42],[47,-29],[-34,-137],[12,-69],[48,-24],[-4,-44],[61,-184],[-8,-77],[81,-147],[32,-160],[29,-21],[1,-125],[27,-55],[-31,-134],[-2,-276],[27,1],[10,-83],[100,-45],[63,-244],[3,-123],[74,-100],[10,-87],[117,-184],[50,15],[63,-520],[75,-319],[24,-406],[37,-122],[-20,-357],[87,-258],[137,-92],[360,-677],[430,-621]],[[57978,53482],[-440,-1428],[229,-351],[101,-295],[74,-99],[94,19],[168,-316],[51,-228],[60,-132],[-5,-324],[29,-237],[154,-87],[35,-168],[163,-66],[227,-317],[47,-164]],[[51380,60894],[2397,127]],[[48008,60690],[3372,204]],[[51380,60894],[45,-1285],[114,-835],[500,-5508],[-16,-53],[11,-275],[-19,-88],[-7,-225],[8,-283],[78,-279],[1,-220],[41,-194],[0,-87],[39,-108],[109,-44],[37,-101],[41,20],[105,-125],[28,-178],[15,-308],[51,-204],[-6,-282],[51,-298],[-22,-153],[54,-444],[107,-218],[115,-401],[98,-33],[26,-173],[65,25],[71,-269]],[[46702,60626],[1306,64]],[[46702,60626],[40,-195],[31,-458],[131,-229],[41,-169],[149,-89],[99,80],[115,-277],[146,-99],[76,-133],[20,-107],[-18,-313],[11,-167],[121,-233],[5,-92],[-34,-213],[118,-515],[-44,-509],[73,-109],[28,-113],[102,-5],[82,-144],[79,-212],[40,-283],[75,-204],[-1,-106],[-37,-141],[-124,-198],[-9,-712],[-175,-653],[27,-445],[-157,-755],[-7,-147],[26,-462],[-70,-513],[81,-796],[145,-282],[90,-341],[99,-734],[3,-346],[68,-276],[24,-195],[-54,-517],[-123,-255],[-77,-447]],[[17791,57677],[1415,-4318],[-29,-29],[-18,-167],[14,-152],[42,-202],[95,-13],[-66,-1018],[17,-28],[44,74],[74,-95],[4,-1354],[147,-2151],[21,-98],[42,-26],[-14,-98],[15,-157],[66,-65],[25,-75],[-2,-66],[31,-37]],[[19714,47602],[-26,-32],[-20,-120],[-111,57],[-37,-63],[-7,-80],[-62,-48],[-168,80],[-27,-129],[-88,-69],[-64,-307],[-86,-21],[0,191],[-38,-28],[-20,101],[-43,-211],[-77,-34],[-5,-101],[-50,-146],[-120,-21],[-20,87],[-53,-123],[-2,324],[-82,55],[-28,-81],[-38,-12],[2,-212],[-56,-25],[-28,-99],[8,-110],[73,-80],[9,-94],[-131,-456],[-16,16],[-12,176],[-167,-286],[-135,56],[-28,-109],[0,-138],[-58,-16],[-19,-207],[-35,-44],[7,-86],[-133,125],[0,-286],[-64,-221],[-157,-1],[-53,-102],[-74,37],[30,180],[-13,71],[32,97],[16,201],[-27,113],[-78,54],[-2519,-2098]],[[14816,43327],[-108,337],[-118,109],[-45,-79],[-12,109],[-49,52],[-16,209],[-48,117],[-69,-2],[-80,112],[54,72],[41,193],[-2,124],[60,244],[-21,118],[9,119],[74,50],[22,131],[584,1740],[62,-8],[26,109],[-33,203],[11,50],[-35,114],[19,69],[-8,84],[-48,74],[-41,-63],[-70,199],[-33,175],[13,170],[174,174],[-9,75],[-75,147],[35,232],[-34,86],[2,89],[59,174],[124,78],[35,78],[13,162],[53,87],[32,146],[9,374],[160,267],[104,67],[49,154],[0,109],[52,202],[-15,140],[42,147],[-9,316],[64,523],[3,102],[-23,59],[15,127],[-25,216],[17,336]],[[15807,52925],[37,2],[42,222],[50,24],[112,246],[48,4],[29,82],[39,-38],[50,50],[88,224],[46,-14],[67,76],[63,-58],[223,176],[110,-21],[27,137],[49,69],[2,155],[22,100],[74,106],[36,156],[-15,219],[118,173],[32,251],[39,87],[13,186],[56,127],[46,508],[58,58],[6,132],[51,73],[35,170],[127,153],[38,147],[66,64],[39,117],[50,22],[-5,111],[-35,101],[51,355]],[[23249,56595],[68,156],[182,193],[120,-246],[82,-35],[78,120],[57,-12],[51,210],[87,-41],[35,-192],[43,84],[47,-112],[49,222],[94,100],[17,119],[66,-32],[68,51],[99,-77],[110,-282],[108,-138],[38,38],[67,-125],[35,-191],[57,-38],[81,-213],[26,-476],[41,-31],[36,130],[83,-378],[29,-53],[4,-129],[90,-85],[6,-349],[83,-183],[51,2],[27,-149],[61,59],[70,-21],[22,-200],[53,-86],[7,-224],[46,-43],[44,-201],[84,-200],[27,-284],[63,-114],[74,30],[22,-247],[101,-287],[66,-79],[0,-206],[36,-184],[94,-194],[72,81],[36,-20],[3,-124],[102,-223],[9,-267],[52,-36],[-30,-236],[8,-438],[32,-156],[-59,-264],[-31,-275],[16,-893]],[[26544,49121],[-2177,225],[-1270,224],[-160,-57],[-151,-190],[-35,18],[-118,-102],[-87,-194],[-71,58],[-27,135],[-71,-61],[-56,157],[-75,-21],[-16,-90],[-24,30]],[[22206,49253],[34,1361],[-96,3],[0,588],[108,-8],[40,1504],[49,108],[7,95],[39,104],[0,81],[83,226],[5,166],[37,77],[96,-88],[46,224],[42,57],[-8,200],[36,66],[-1,177],[28,-1],[5,211],[31,96],[50,29],[1,138],[91,510],[89,253],[22,133],[-12,127],[66,307],[127,326],[29,125],[-1,147]],[[73528,55752],[318,-78],[332,193],[347,49],[190,188],[45,-114],[-3,-212],[38,-187],[38,-47],[-9,-118],[37,-72],[69,-378],[108,-16],[50,51],[27,98],[79,62],[48,-48],[65,100],[120,-32],[108,434],[112,218],[41,197],[77,67],[49,-161],[71,28],[80,-85],[55,216],[38,-46],[16,64],[151,115],[18,44],[1,109],[354,421],[25,108],[-15,114],[59,280],[-7,69],[87,13],[-4,89],[116,147],[46,14],[-12,-98],[36,13],[63,-83],[-3,-109],[45,-80],[130,70],[22,49],[-16,266],[79,143]],[[77249,57817],[34,-25],[31,-181],[-8,-388],[80,-208],[-11,-56],[44,-80],[-29,-41],[78,-139],[-18,-61],[27,-45],[40,55],[12,-16],[-10,-62],[39,22],[-19,-43],[8,-91],[-60,-125],[21,-98],[87,-88],[-36,-201],[10,-148],[82,-149],[94,23],[52,-243],[15,-413],[54,-30],[25,133],[29,-32],[104,62],[64,-179],[93,-44],[18,-53],[10,-213]],[[73206,48777],[111,6004],[79,561],[132,410]],[[78209,54660],[100,-191],[191,-34],[126,-199],[663,1862],[177,-138],[118,-244],[10,-137],[-26,-190],[54,-233],[62,-65],[148,99],[109,262],[-16,181],[25,181],[-15,133],[10,94],[-25,135],[47,113],[-15,133],[11,86],[80,116],[-2,185],[129,80],[143,-90],[88,165],[71,576]],[[80472,57540],[2616,-4304],[709,-1707]],[[77274,50619],[7,92],[87,142],[15,149],[206,272],[137,116],[91,337],[-39,441],[-94,211],[-32,273],[4,198],[-73,140],[1,92],[-37,133],[15,84],[91,67],[23,289],[77,38],[-11,420],[15,201],[38,63],[54,-108],[20,86],[81,-16],[-2,102],[48,-71],[-17,213],[11,43],[161,158],[23,-5],[35,-119]],[[7236,52475],[86,124],[1987,603],[74,220],[86,-75],[103,-220],[64,10],[130,178],[56,447],[41,69],[64,-8],[104,311],[47,-23],[77,-245],[63,59],[60,-101],[69,289],[53,112],[100,-74],[59,43],[72,-46],[78,131],[94,-115],[78,130],[113,-39],[87,94]],[[11081,54349],[57,-198],[2,-178],[29,-179],[78,-52],[42,-97],[-22,-142],[15,-65],[-9,-160],[62,-114],[7,-208],[-19,-141],[68,-267],[-15,-184],[-25,-82],[18,-178],[-22,-157],[68,-37],[-10,-154],[29,-88],[114,-61],[31,-266],[-15,-190],[28,-63],[2,-174],[20,-73],[90,-97],[33,-106],[107,-28],[122,108],[181,17],[22,281],[112,41],[99,-56],[30,-355],[57,-205],[-18,-59],[-2,-151],[25,-173],[-2,-147],[-35,-122],[1,-161],[20,-22],[-19,-113],[10,-134],[-53,-42],[-14,-135],[5,-291],[-15,-141],[31,-341],[-14,-357],[32,50],[94,-36],[30,-127],[5,-146],[31,-21],[31,-138],[31,-14],[79,-190],[35,-171],[44,-63],[12,-188],[31,-74],[3,-296],[52,-116],[12,-238],[65,-147],[56,-15],[76,-238],[86,8],[7,-101],[41,-67],[53,-535],[-170,-9],[-67,-254],[-88,-90],[0,-101],[33,-143],[-23,-57],[84,-145],[80,-1],[97,-113],[135,-543],[58,26],[-20,-193],[44,-346],[29,-41],[3,-282],[103,-150],[55,53],[9,-80],[34,-53],[0,-314]],[[13689,42353],[-4228,-272]],[[6981,51355],[22,133],[67,180],[36,244],[83,334],[9,136],[38,93]],[[6981,51355],[59,-43],[34,-143],[35,-27],[15,-278],[-76,-376],[-156,-238],[-23,-181],[-110,-139],[-67,-307],[41,-105],[64,-47],[36,106],[53,-146],[-6,-199],[-50,-136],[-102,-108],[-68,-175],[-8,-138],[17,-110],[-82,-576]],[[3572,41851],[-3572,48],[354,8607],[25,-37],[26,82],[25,-7],[89,295],[170,263],[22,140],[52,121],[121,149],[118,399],[96,180],[80,-25],[67,-99],[95,-379],[29,-377],[19,-35],[58,45],[62,-180],[98,22],[107,223],[96,-117],[25,81],[129,48],[112,-40],[50,-137],[73,-49],[14,46],[-12,172],[14,91],[64,93],[68,-109],[77,87],[108,-137],[51,50],[109,247],[22,192],[315,310],[22,127],[48,38],[66,185],[55,326],[80,139]],[[3299,52929],[5,-59],[66,-119],[32,-256],[43,-76],[0,-82],[74,-110],[-17,-557],[61,-166],[45,-3],[-7,-68],[17,-44],[-63,-285],[29,-74],[10,-168],[27,-73],[107,-54],[23,-62],[37,29],[96,-185],[19,-169],[93,-112],[95,-37],[24,63],[-6,65],[159,-6],[5,87],[101,20],[99,185],[203,192],[70,182],[83,-191],[23,66],[45,-5],[87,128],[65,194],[54,-20],[21,108],[40,51],[136,57],[76,227],[47,-36],[112,62],[59,-169],[37,-34],[102,152],[56,-81],[154,181],[90,-173],[58,-13],[90,-238],[124,93],[65,-211],[79,20],[50,78],[129,-10],[251,464],[41,-7],[8,-97],[52,-131],[-14,-79],[15,-18]],[[88051,54956],[544,-285],[283,-386],[1602,-4663]],[[85879,41669],[-569,-1012],[-202,-128],[-421,53],[-199,198],[-661,830],[-150,248],[-513,1170],[-177,769],[217,564],[82,323],[19,158],[-3,216],[50,171],[-39,154],[12,87],[-17,76],[-3,169],[27,282],[-38,67],[32,4],[6,84],[30,52],[-24,31],[-19,223],[-47,60],[-19,190],[-32,10],[-46,120],[-199,182],[-77,139],[-33,202],[-66,187],[-39,379],[15,54],[49,-50],[53,37],[77,226],[-7,155],[24,190],[-26,264],[57,119],[44,661],[114,282],[78,59],[34,205],[-24,190],[11,83],[121,277],[146,171],[97,-16],[68,85],[39,181],[-11,159],[47,102],[30,168]],[[83797,51529],[569,-1373],[2397,706],[216,1303],[-9,118],[24,193],[-27,207],[2,213],[-57,411],[34,416],[-6,605],[43,143],[95,123],[151,807],[822,-445]],[[65224,53766],[560,-1877],[827,-380],[77,57],[161,315],[1026,882]],[[67875,52763],[672,-2214],[960,-801],[-18,-548]],[[64371,51241],[103,336],[92,143],[8,199],[163,327],[16,227],[-23,195],[23,232],[-20,82],[25,141],[28,28],[55,-71],[35,57],[23,150],[62,83],[79,13],[-20,66],[48,117],[81,48],[75,152]],[[58965,49289],[1104,805],[236,-82],[403,264],[73,-18],[69,133],[41,-14],[16,72],[45,-126],[41,116],[209,270],[53,-87],[58,75],[85,-14],[73,190],[-22,212],[91,132],[92,-91],[62,212],[72,73],[7,97],[56,-18],[36,52],[52,-50],[20,100],[51,-1],[26,149],[74,43],[152,-136],[41,201],[40,-8],[15,104],[34,40],[138,-90],[-16,-35],[21,-62],[39,93],[85,-55],[11,-87],[44,-50],[19,15],[5,100],[31,-5],[-21,68],[30,34],[-3,-69],[15,-17],[17,64],[36,2],[9,-136],[38,71],[4,67],[103,14],[58,-72],[63,53],[51,129],[57,-64],[21,-183],[66,-22],[10,-66],[49,56],[31,-81],[990,-415]],[[64371,51241],[21,-258],[-40,-179],[19,-202],[-26,-155],[-46,-60],[-76,-257],[-17,-136],[14,-115],[70,-156],[-26,-89],[-60,-9],[-38,-103],[-31,-5],[-50,102],[-46,-117],[75,-193],[47,-14],[-44,-217],[8,-138],[42,-85],[6,-106],[58,-178],[-26,-83],[-41,39],[-34,-122],[15,-95],[50,-35],[-3,-207],[-50,-25],[-25,-81],[41,-163],[-23,-88],[35,-305],[-9,-110],[-37,-171],[-31,-17],[-15,-136],[-64,-112],[-40,-151],[6,-81],[24,-33],[91,123],[28,-167],[-44,-116],[-82,-7],[-37,-59],[-5,-125],[23,-158],[-28,-105],[-50,-19],[5,-212],[-28,-61],[-81,36],[-26,-40],[1,-153],[-22,-99],[36,-181],[68,-78],[6,-328],[-17,-80],[37,-138],[-6,-132],[76,-330],[-1,-113],[-41,-246],[45,-159],[5,-64],[-18,-16],[61,-241],[-29,-270],[84,-366],[-27,-150],[16,-87],[2,-394],[30,-132],[64,-37],[60,-356],[83,-183],[59,-248],[102,-200],[44,-263],[26,32],[16,-67],[67,-28],[73,-191],[8,-94],[65,-76],[22,-129],[58,5],[67,-78],[-14,-226],[117,-323],[16,-140],[88,-83],[76,41],[49,-177],[0,-127],[-40,-98],[2,-156],[84,-192],[11,-114],[12,53],[104,-107],[24,-260],[120,-64],[15,-65],[-24,-194],[19,-54],[1,-149],[118,-176],[3,-85],[32,-95],[50,-15],[1,-86]],[[58950,48657],[15,133],[-28,200],[28,299]],[[6587,47989],[127,-390],[60,204],[78,156],[164,-102],[65,132],[77,-67],[32,132],[73,-81],[53,53],[82,-253],[73,158],[-2,208],[68,-108],[16,-117],[54,-41],[-22,-183],[48,-114],[-45,-155],[-100,-32],[35,-130],[60,-37],[103,140],[36,-187],[-75,-49],[42,-65],[56,-334],[33,140],[88,0],[-26,219],[41,-94],[48,-7],[1,-319],[21,-17],[26,-215],[-44,-157],[5,-97],[76,-149],[66,-10],[53,-80],[48,-195],[102,-79],[42,-195],[-10,-201],[41,-127],[23,-3],[38,-212],[99,-35],[-12,-137],[66,-271],[-52,-292],[38,-109],[56,-336],[111,5],[109,-116],[89,-364],[110,-289],[-8,-181],[-56,-150],[58,-211],[-3,-127],[55,-10],[36,164],[45,35],[59,-162],[50,22],[154,-116],[40,-168]],[[9461,42081],[-1543,-46],[-4,-199],[-4342,15]],[[3572,41851],[23,311],[49,18],[215,363],[93,228],[-11,87],[106,177],[76,240],[-51,175],[27,284],[-86,190],[38,70],[-15,76],[38,45],[49,180],[93,-10],[65,104],[86,317],[9,111],[39,22],[36,-85],[38,232],[184,185],[22,292],[191,437],[62,285],[69,128],[24,141],[128,242],[-22,257],[33,182],[61,163],[186,246],[74,-40],[16,-73],[173,-67],[46,83],[64,13],[10,96],[110,36],[21,111],[113,-11],[78,74],[23,123],[67,126],[54,-48],[107,67],[39,132],[81,-11],[84,-166]],[[74377,42603],[1451,2302],[284,930],[493,1808],[284,954],[-217,2535],[602,-513]],[[77274,50619],[117,-111],[1529,-2770],[1432,-2067],[40,-143],[105,-160],[-29,-265],[16,-373],[39,-124],[57,-64],[22,-105],[36,7],[37,92],[39,-8],[46,185],[54,-105],[58,4],[88,-220],[44,176],[67,48],[41,122],[35,247],[41,124],[55,28],[94,-110],[6,-107],[45,-165],[9,-527],[-14,-229],[28,-129],[2,-238],[89,-333],[-44,-325],[-65,-6793],[694,203],[-305,-728],[-43,-183]],[[90480,49622],[2685,-2763],[663,-2557]],[[93828,44302],[-135,9],[-21,109],[-221,-46],[-405,-742],[-520,-1217],[-58,-57],[4,-57],[-488,-1190],[-843,-2242],[-384,-938],[-241,-491],[-103,-352],[-113,-183],[-270,-918],[-497,-1492],[-697,-2487],[-395,-1496],[-226,-985],[-260,-1375],[-84,-1029],[-24,28],[24,102],[0,104],[-31,226],[-121,398],[-83,465],[22,400],[41,74],[11,-43],[-22,-349],[30,-235],[104,25],[8,-150],[44,-8],[61,212],[-12,466],[-69,104],[-97,391],[-138,292],[-189,283],[-507,527],[-372,248],[-123,222],[-32,173],[-123,106],[-166,-32],[-378,155],[-356,24],[-556,-92],[-624,-207],[-1546,-753],[-818,-617],[-480,-447]],[[80747,34516],[45,68],[-34,33],[-29,120],[44,-3],[25,150],[129,-93],[24,49],[46,-15],[22,121],[126,45],[56,-87],[23,-113],[88,66],[7,95],[38,-3],[19,140],[33,76],[133,-137],[51,3],[15,37],[5,319],[126,86]],[[81739,35473],[1396,-82],[-4,561],[819,443],[-10,297],[1256,65],[60,77],[95,-91],[734,831],[17,455],[52,277],[7,220],[37,141],[151,213],[78,244],[115,932],[-375,985],[-288,628]],[[85879,41669],[1016,1846],[3585,6107]],[[43065,49044],[20,-119],[109,-91],[59,-135],[34,35],[34,136],[38,-20],[27,-102],[3,-159],[80,-200],[66,123],[60,-199],[124,1],[84,-132],[45,137],[72,52],[106,224],[36,-39],[14,-164],[46,-130],[121,144],[40,-67],[91,5],[98,230],[46,203],[63,80],[29,-36],[44,-293],[49,-151],[55,-41],[49,147],[53,-14],[69,180],[51,-16],[64,108],[43,-10],[54,-127],[14,229],[162,104],[23,226],[56,86],[35,131],[97,-97],[34,27],[31,131],[47,5]],[[45151,35572],[-5383,209],[173,4209],[-656,2394]],[[49576,35306],[-4425,266]],[[45151,35572],[489,13874]],[[45640,49446],[19,7],[48,196],[71,92],[12,155],[119,89],[26,-75],[-2,-206],[125,-553],[-22,-200],[12,-153],[44,-233],[66,-195],[65,-364],[195,-20],[38,351],[81,42],[30,-57],[14,-232],[26,-96],[181,-290],[109,-21],[51,37],[16,97],[-90,372],[22,106],[74,102],[29,240],[65,13],[97,-210],[80,-14],[41,200],[80,43],[0,90],[-51,231],[4,147],[69,171],[105,72],[41,-75],[16,-118],[-9,-427],[17,-143],[207,-474],[123,-416],[33,-230]],[[58950,48657],[-172,-1784],[47,-33],[84,-350],[6,-247],[20,-86],[-10,-107],[18,-58],[-14,-88],[13,-153],[59,-140],[17,-273],[-19,-135],[35,-67],[11,-223],[-31,-267],[19,-168],[-32,-121],[36,-77],[22,-151],[-42,-88],[24,-61],[-6,-129],[203,-870],[9,-132],[118,-256],[46,-328],[81,-240],[29,-474],[40,-106],[28,-292],[39,-19],[30,-147],[-24,-197],[28,-148]],[[54872,43887],[265,873],[881,2624],[250,813],[77,-7],[-9,108],[66,106],[125,39],[19,167],[67,76],[4,73],[90,215],[40,189],[93,84],[-7,86],[43,87],[47,8],[22,88],[124,55],[48,183],[45,-58],[76,186],[27,194],[50,6],[19,-56],[-14,-103],[23,-29],[38,90],[78,-11],[65,-281],[49,-20],[15,-139],[78,-158],[39,28],[19,-41],[20,74],[3,-110],[94,8],[8,-49],[12,109],[53,-84],[9,61],[43,-16],[11,-111],[28,-30],[29,8],[6,75],[33,42],[32,-57],[-4,-192],[56,-47],[-7,-134],[71,-28],[6,-63],[26,19],[-10,115],[47,-90],[20,29],[-7,-142],[37,-98],[42,72],[-8,-114],[66,-144],[67,103],[5,188],[25,17],[51,-65],[-20,-65],[35,-88],[9,-142],[26,-41],[62,188],[98,-50],[87,94],[28,-27],[37,80]],[[69489,49200],[972,-512],[367,625],[128,-22],[146,73],[38,-102],[124,-7],[58,-66],[74,-213],[118,11],[40,-200],[23,-269],[94,-169],[184,-16],[102,251],[89,-48],[77,87],[49,-24],[139,-242],[44,-157],[2,-162],[189,-401],[13,27],[-26,107],[-3,158],[61,208],[615,640]],[[73206,48777],[734,-1167],[226,-1360],[17,-1722],[-1,-84],[-16,-10],[1,-239],[24,-17],[10,-1035],[176,-540]],[[74377,42603],[440,-876],[144,-404]],[[70059,32230],[-125,-310],[-118,-151],[-178,454],[-560,553],[604,6023],[-82,3359],[-4,831],[-64,2231],[-134,492],[5,780],[94,816],[-23,1492],[15,400]],[[47917,47517],[394,-125],[82,32],[115,-122],[212,391],[168,214],[76,188],[66,-80],[247,-17],[60,52],[57,232],[515,-93],[536,808],[98,-89],[78,-150],[66,-5],[87,82],[36,-53],[102,72],[196,-140],[102,-18],[179,72],[113,-145],[93,-23],[109,80],[26,98],[38,26],[244,-195],[205,229],[4,-51],[164,-25],[65,-71],[28,-96],[91,-76],[61,-217],[171,-246],[319,212]],[[53120,48268],[4,-185],[44,-125],[17,-178],[105,-274],[23,38],[71,-104],[71,-328],[-2,-101],[113,-283],[13,-153],[-38,-274],[24,-102],[-22,-224],[11,-81],[-55,-188],[-26,-316],[74,-318],[12,-213],[45,-141],[138,-28],[37,45],[197,-61],[108,55],[33,-25],[9,-79],[99,55],[14,-67],[173,19],[87,-145],[41,53],[25,-89],[40,24],[57,-77],[15,-136],[61,-185],[53,-51],[48,-135],[33,-4]],[[52294,35241],[-2718,65]],[[49576,35306],[62,79],[97,343],[60,843],[87,565],[51,108],[146,142],[191,520],[189,753],[16,145],[-16,365],[-67,468],[-41,242],[-91,296],[-55,381],[2,140],[96,697],[-9,190],[-22,87],[-69,72],[-132,280],[-180,510],[86,685],[160,330],[33,226],[-8,119],[-70,276],[-205,351],[-96,246],[-36,267],[2,750],[-40,216],[-66,174],[-12,248],[-33,134],[-74,80],[-139,9],[-142,-172],[-244,-485],[-77,-412],[-85,-141],[-59,-10],[-299,192],[-201,461],[-275,286],[-28,118],[2,318],[-59,359],[-9,340]],[[47917,47497],[0,20]],[[54845,28905],[-2418,6329],[-133,7]],[[52294,35241],[-8,228],[110,96],[270,34],[227,383],[93,-257],[136,-114],[-36,128],[-49,-15],[-17,105],[17,74],[-8,216],[36,73],[-11,141],[29,154],[-70,130],[43,119],[-2,106],[-75,114],[122,512],[614,1596],[-52,25],[19,299],[-89,371],[-60,21],[-14,52],[-67,459],[18,132],[-25,272],[38,56],[7,274],[38,175],[-2,117],[31,68],[-24,174],[64,514],[67,88],[148,340],[356,525],[109,233],[471,369],[105,174],[19,85]],[[54872,43887],[31,-136],[-11,-75],[59,-165],[-1,-89],[24,-3],[10,-129],[39,-27],[40,-139],[121,-74],[64,-318],[67,-124],[44,-182],[68,-40],[21,-93],[25,4],[50,-76],[34,-130],[19,10],[0,-81],[71,-207],[-4,-73],[25,-93],[110,-207],[92,-319],[5,-121],[79,-141],[10,-77],[17,18],[-31,-136],[25,-118],[-10,-24],[45,-33],[33,-171],[12,31],[11,-45],[-1,-276],[-16,14],[5,-98],[-22,-60],[18,-226],[42,-75],[11,-105],[-22,-69],[14,-89],[-18,-215],[42,-358],[-14,-76],[13,-141],[-19,-41],[23,-126],[-7,-123],[26,-157],[-10,-28],[14,-2],[-4,-113],[27,-52],[-19,-62],[43,-158],[-18,-130],[23,-35],[0,-188],[42,-109],[-13,-70],[23,-114],[-39,-80],[16,-63],[-38,-34],[9,-64],[-42,-51],[1,-92],[-32,-17],[12,-70],[-20,-52],[8,-40]],[[74961,41323],[451,438],[1536,-543],[1539,-2102],[12,428],[22,88],[123,167],[77,1],[77,190],[106,93],[126,-128],[8,-90],[58,48],[17,124],[25,22],[46,-109],[79,-34],[39,-120],[99,35],[6,-89],[26,-41],[164,-72],[35,-216],[58,-187],[-2,-195],[94,25],[-6,-251],[27,-77],[143,-64],[-14,-203],[35,-55],[39,32],[-20,-252],[132,27],[9,-79],[-17,-75],[73,-322],[-41,-100],[9,-122],[64,-183],[7,-103],[29,-37],[-21,-222],[79,-182],[27,-157],[-11,-30],[29,-38],[-10,-127],[-20,-37],[22,-19],[-4,-75],[122,-76],[-9,61],[41,-11],[41,111],[42,-32],[15,-238],[-59,-126],[-2,-151],[-24,-99],[-95,-50],[-4,-64],[28,-79],[-31,-153],[38,-112],[35,-9],[-13,-136],[174,-227],[-5,-143],[56,-82],[-48,-90],[57,-84],[-31,-156],[36,-10],[41,167]],[[80747,34516],[-4,-207],[29,-18],[32,101],[34,-9],[5,-79],[-32,-172],[31,-34],[41,121],[9,-132],[29,-73],[-86,-59],[3,-135],[37,-7],[62,101],[67,-88],[14,-218],[28,3],[41,143],[45,-184],[63,-71],[13,-81],[-13,-278],[52,-578],[83,-226],[93,-499],[10,-590],[-38,-289],[-74,-227],[5,-279],[170,-118],[36,-107],[-10,-148],[-88,-221],[-11,-329],[-45,-75],[-29,-239]],[[81349,29215],[-427,-362],[-662,-870],[-558,-1005],[-435,-964],[-286,-553],[-251,-413],[-98,-89],[-546,-783],[-689,-1047],[-624,-1122]],[[74944,32175],[-64,459],[395,6926],[-314,1763]],[[59248,16879],[-1955,5296],[-1275,3630],[-1173,3100]],[[54845,28905],[1457,5136],[18,-19],[-5,143],[-24,39],[15,26],[-25,10],[-40,250],[8,43],[-23,-2],[9,79],[-17,-10],[0,77],[-25,-11],[0,114],[-26,-3],[15,38],[-11,107],[-17,-9],[-14,158],[-19,16],[17,64],[-38,99],[15,69],[-20,75],[8,43],[-20,6],[4,79],[-23,-10],[4,66],[-27,37],[6,47],[-31,136],[52,131],[12,353],[44,177]],[[56124,36459],[1769,-171],[1769,4354]],[[59662,40642],[405,-723],[457,-676],[111,-327],[80,-98],[20,-193],[40,-67],[97,-332],[57,-446],[5,-206],[-60,-162],[265,-1105],[19,16]],[[61158,36323],[661,456],[487,121],[3004,28],[208,-199],[109,241],[127,153]],[[65754,37123],[-7,-157],[38,-109],[-19,-230],[44,-15],[-12,-63],[19,-21],[18,-150],[23,-36],[36,53],[186,-321],[10,-62],[-23,-121],[22,-65],[24,53],[8,-42],[27,26],[8,-321],[67,-14],[18,51],[29,-55],[12,-56],[-13,-131],[87,-253],[-42,-74],[3,-42],[81,-184],[-21,-60],[27,-155],[-20,-15],[104,-143],[14,-64],[-21,-135],[75,-133],[-10,-106],[47,-140],[116,-25],[11,-126],[35,-87],[-20,-60],[47,-24],[0,-100],[35,-53],[-3,-53],[112,-74],[-9,-54],[20,-80],[-32,-70],[0,-66],[58,-146],[-32,-54],[-25,-141],[6,-101],[96,-120],[5,-102],[44,-13],[-30,-223],[68,-169],[-18,-8],[14,-40],[-10,-50],[97,-211],[-31,-66],[26,-69],[-54,36],[7,-76],[50,-95],[23,-125],[17,69],[41,10],[13,-60],[-23,-20],[10,-68],[43,55],[32,-92],[62,74],[-8,-121],[16,-26],[20,78],[13,-222],[19,-25],[-35,-54],[2,-65],[64,-40],[31,-163],[86,-80],[82,-211],[-3,-68],[-23,36],[-12,-60],[18,-42],[-11,-262],[51,-107],[-32,-119],[42,1],[24,-138],[52,-44],[9,-120],[23,-12],[-61,-191],[33,-90],[-81,-80],[-14,-83],[35,-53],[30,34],[-2,-75],[39,-17],[-9,-260],[34,-108],[-16,-85],[21,-48],[44,49],[25,-89],[-20,-95],[26,-44],[-7,-86],[13,-29],[-21,-37],[27,-5],[0,-77],[57,-27],[39,71],[36,-57],[-17,-108],[39,29],[22,-168],[55,-97],[26,15],[-1,-78],[58,-167],[-2,-101],[19,44],[20,-61],[60,101],[17,-171],[21,-18],[-11,-77],[38,-78],[-18,-98],[55,-122],[29,9],[5,-160],[27,-62],[-94,-225],[41,-17],[24,-85]],[[61524,23550],[46,395],[82,148],[36,131],[51,23],[9,-63],[36,13],[1,103],[30,109],[-4,98],[-67,169],[-65,47],[59,93],[-45,141],[19,186],[-28,131],[14,121],[-58,157],[30,273],[26,68],[-28,37],[-4,76],[39,246],[-55,371],[25,67],[-5,116],[117,97],[36,140],[6,349],[38,16],[49,167],[-2,131],[-66,-5],[76,132],[26,231],[5,141],[-36,118],[20,118],[-9,114],[53,145],[-13,84],[20,90],[-15,75],[32,243],[63,-14],[9,66],[-21,71],[39,-7],[-10,70],[24,230],[61,42],[-43,191],[-39,7],[-6,97],[58,214],[80,91],[-24,77],[48,138],[-17,287],[20,105],[-12,224],[-75,216],[-36,233],[-46,123],[-8,122],[-44,20],[-28,112],[-33,24],[-23,166],[-44,-17],[-3,-54],[-24,153],[-27,-60],[16,112],[-51,64],[-15,211],[-89,183],[-45,731],[-51,92],[-24,204],[15,124],[-35,103],[11,137],[-15,119],[-36,56],[-63,286],[-48,326],[6,67],[-26,16],[-33,193],[5,111],[-30,159],[30,95],[-55,-43],[-47,104],[-87,534],[21,65],[-4,66],[-36,89]],[[70059,32230],[134,130],[67,-81],[92,70],[69,-98],[37,71],[78,9],[50,116],[180,-117],[51,8],[56,91],[25,-51],[25,81],[-1,-85],[44,68],[22,-111],[48,60],[22,143],[105,69],[61,-29],[-6,-71],[25,-41],[6,-82],[60,-3],[-6,-76],[68,-119],[27,-131],[33,-48],[43,60],[24,-93],[35,45],[9,-80],[32,50],[-6,62],[52,-91],[17,100],[-22,38],[18,37],[31,8],[8,-56],[93,66],[35,-150],[27,23],[46,-66],[7,119],[131,85],[-11,39],[28,80],[13,-110],[19,20],[0,67],[60,4],[97,-111],[2727,26]],[[74944,32175],[1181,-8718],[-7,-135],[46,3],[5,-154],[47,-102],[50,-15],[18,63],[38,-58],[52,72],[54,-162],[30,-9],[5,-72],[52,11],[-6,-70],[27,-11],[18,-115],[219,-696]],[[76773,22007],[-724,-1450],[-403,-966],[-321,-911],[-171,-252],[-143,-442],[-223,-566],[-214,-751]],[[68445,20529],[895,2384],[-36,26],[-23,128],[-45,-59],[-36,43],[-1,91],[-36,78],[-127,91],[-30,155],[10,73],[-32,124],[12,64],[-52,-65],[-4,96],[-49,-51],[-69,211],[-7,-98],[-139,78],[-56,240],[-27,55],[-23,-35],[-8,65],[-75,122],[1,54],[-35,82],[10,114],[36,-33],[-13,97],[-37,11],[-8,132],[24,95],[-110,6],[10,168],[-25,83],[27,63],[-66,76],[-17,71],[5,99],[-25,80],[134,279],[65,293]],[[68463,26115],[1107,4538],[476,984],[13,593]],[[68445,20529],[42,-294],[68,58],[10,-284],[102,-188],[15,-225],[36,9],[38,163],[34,-170],[167,-201],[-2,-314],[87,-216],[83,-60],[196,109],[46,-152],[69,215],[72,1]],[[63999,3987],[-4751,12892]],[[59248,16879],[21,57],[-10,98],[30,0],[-24,61],[19,71],[28,63],[46,-18],[1,-57],[71,77],[-30,63],[60,154],[25,-17],[12,-102],[46,-29],[75,96],[10,118],[-32,35],[40,137],[15,-76],[17,193],[-33,47],[20,55],[-17,60],[18,35],[-27,117],[24,17],[10,177],[43,58],[-17,90],[36,-1],[-15,162],[57,39],[1,129],[-24,47],[99,-35],[-3,-58],[23,-20],[-2,65],[86,35],[-16,90],[57,159],[-27,65],[48,-1],[-3,54],[35,79],[-22,-19],[-1,162],[-23,35],[-8,108],[-17,-24],[-5,170],[-30,10],[6,111],[-20,32],[53,25],[-4,61],[56,42],[42,230],[40,-6],[3,63],[130,44],[9,-50],[40,10],[-7,-63],[16,-22],[49,65],[-23,137],[69,-17],[14,83],[-13,112],[23,56],[-22,147],[25,155],[-42,-18],[33,103],[-23,55],[24,86],[-44,40],[49,165],[-26,25],[16,75],[-27,89],[40,99],[15,166],[57,148],[14,125],[64,33],[21,174],[43,61],[28,-26],[28,90],[59,-8],[70,92],[67,-59],[53,55],[30,-68],[11,88],[62,74],[45,-28],[63,57],[161,336],[2,137],[59,83],[21,123],[81,103],[49,150]],[[61524,23550],[95,3],[41,-310],[82,-27],[56,-182],[89,-54],[32,-127],[103,-85],[1779,294],[77,-811],[33,104],[95,136],[6,165],[25,18],[210,-260],[61,61],[108,-372],[105,-78],[69,-305],[182,-55],[1517,-1951],[450,-113],[115,-106],[370,28],[285,-201],[936,1207]],[[70997,18056],[435,199],[-31,91],[8,144],[80,349],[97,152],[-17,115],[-98,108],[5,263],[47,87],[95,-32],[53,193],[87,189],[42,-70],[-34,-270],[22,-106],[99,-220],[15,41],[4,211],[107,-58],[10,-60],[-22,-191],[69,-183],[17,58],[-17,252],[50,33],[-16,-196],[43,-5],[65,204],[57,295],[109,-16],[80,102],[16,-82],[-8,-290],[24,-106],[148,-7],[293,548],[190,65],[212,285],[30,-92],[-6,-59],[28,25],[40,-149],[53,14],[63,-187],[-6,-103],[-28,-21],[-24,-169],[-59,-64],[24,-83],[-13,-71],[18,-143],[678,-2018],[38,18],[42,-90],[54,2],[-11,-177],[28,-139],[72,61],[80,-58],[82,159],[58,-135]],[[74574,16669],[-55,-196],[-103,-147],[-78,-200],[-426,-1460],[-407,-1870],[-249,-902],[-143,-872],[-303,-2120],[-60,-170],[-39,-250],[-29,-398],[-297,-2271],[-67,-712],[-71,-281],[-98,-804],[-104,-589]],[[69508,18980],[45,35],[34,228],[37,77],[41,23],[88,-74],[-4,150],[48,94],[45,-170],[124,38],[45,-120],[46,-8],[6,-148],[115,-189],[99,26],[18,-131],[60,-31],[87,98],[9,-120],[48,-134],[-49,-260],[19,-64],[135,22],[58,-45],[4,271],[76,-183],[-5,-168],[65,18],[14,-201],[96,73],[43,-77],[42,46]],[[70997,18056],[51,-140],[-19,-242],[14,-111],[49,21],[98,166],[44,-32],[29,-102],[-9,-139],[-57,-89],[-16,-91],[3,-285],[-29,-409],[30,-81],[85,6],[16,-319],[96,137],[38,-22],[31,-110],[-17,-102],[-107,-97],[-9,-123],[145,-74],[15,-103],[-15,-146],[9,-107],[103,-7],[62,-467],[43,168],[33,-5],[18,-142],[-47,-124],[2,-55],[123,-5],[45,-112],[-76,-26],[46,-153],[31,2],[3,-82],[38,11],[-88,-1023],[19,-435],[-14,-774],[18,-318],[70,-419],[20,-374],[100,-377],[40,-276],[52,-2215],[-2,-876],[-34,-834],[-83,-1188],[-78,-382],[129,-1547]],[[72045,3427],[-5,-349],[-74,-90],[-27,-159],[-121,-1319],[-36,-1018],[26,-492],[-62,244],[-137,225],[-283,313],[-97,168],[-108,1004],[-934,690],[-396,181],[-371,75],[-617,-80],[-173,81],[-284,-42],[-961,-284],[-174,-137],[-149,63],[-63,-56],[-53,-155],[-491,-370],[-863,-789],[-381,-566],[-41,50],[28,79],[-31,88],[-1168,3205]],[[63999,3987],[-3,51],[45,100],[-10,56],[36,14],[-24,150],[33,3],[15,68],[-16,194],[-32,-47],[-20,182],[66,73],[22,109],[14,-44],[62,42],[34,65],[7,98],[53,-94],[11,32],[-39,99],[16,137],[-37,198],[-17,279],[-102,416],[0,219],[167,338],[37,-53],[39,26],[18,159],[50,-35],[-11,67],[26,-22],[24,83],[29,-8],[-19,-38],[10,-24],[42,28],[4,106],[30,-37],[-14,76],[16,53],[1,-79],[14,52],[8,-53],[49,54],[15,-76],[24,0],[1,97],[29,12],[-9,69],[59,4],[-18,139],[61,18],[-2,131],[15,1],[8,100],[-48,-10],[-12,95],[36,204],[72,175],[26,-87],[17,97],[22,-89],[61,29],[26,229],[20,-17],[14,69],[-20,-22],[-7,88],[9,88],[39,40],[15,134],[-7,187],[-47,43],[19,-60],[-24,-24],[-43,88],[23,172],[41,33],[-30,309],[34,-1],[-20,55],[59,133],[13,-67],[39,13],[16,116],[35,31],[-36,28],[12,86],[-31,51],[-53,-17],[50,294],[-19,115],[-4,-61],[-23,-7],[-20,137],[70,69],[-21,38],[19,20],[-18,76],[30,121],[60,28],[-4,-71],[37,-51],[12,59],[-6,109],[-72,254],[21,50],[-19,43],[22,34],[-35,19],[19,48],[7,227],[40,70],[39,-84],[56,288],[73,16],[84,175],[35,256],[149,66],[83,-42],[20,-113],[52,-32],[33,-154],[84,20],[202,-324],[207,-141],[72,-144],[147,-112],[40,207],[128,347],[171,684],[174,387],[39,148],[77,25],[-87,494],[3,97],[1344,413],[1051,5108]],[[38812,80655],[2139,-171]],[[40951,80484],[-172,-7189]],[[37934,62218],[70,204],[-37,530],[46,386],[66,213],[122,122],[32,119],[-14,179],[-94,261],[-1,132],[62,235],[130,171],[3,116],[-137,350],[-51,205],[-107,201],[-98,631],[-61,199],[-4,203],[-63,192],[-105,200],[-21,212],[-34,154],[-50,83],[-35,279],[-118,308],[-158,104],[-265,-196],[-200,100],[-43,78],[-27,249],[16,341],[-36,333],[-252,678],[-9,67],[22,192],[-20,113],[-44,72],[-92,-17],[-107,393]],[[36220,70610],[367,838],[11,332],[122,339],[58,253],[21,250],[215,849],[412,3686],[13,1197],[-285,1940]],[[37154,80294],[589,446],[1069,-85]],[[43585,69342],[37,-258],[29,-77],[119,-9],[313,-426],[100,-25],[122,98],[73,-202],[81,4],[126,-111],[341,182],[79,-64],[101,-391],[-3,-177],[-82,-248],[-27,-184],[16,-285],[45,-254],[62,-118],[106,-91],[70,-189],[36,-445],[119,-375],[47,-256],[69,-115],[179,-90],[74,-134],[198,-462],[63,-223],[74,-440],[254,-544],[24,-298],[-38,-563],[3,-179],[24,-104],[103,-192],[38,-297],[-18,-230],[71,-156],[65,-291],[11,-97],[-12,-217],[25,-183]],[[46702,60626],[-1269,-35]],[[40451,60740],[0,657],[-44,420],[12,266],[-360,4744],[720,6468]],[[40779,73295],[83,-90],[45,150],[38,-25],[20,344],[99,-201],[66,-67],[29,63],[17,-59],[43,6],[-10,-154],[-35,-82],[14,-115],[124,-69],[119,61],[87,-81],[122,53],[3,-244],[92,13],[135,-287],[12,-105],[-25,-98],[27,-78],[67,6],[10,91],[18,-97],[25,131],[55,11],[2,-154],[30,-200],[48,54],[-29,78],[38,61],[183,-241],[29,-153],[66,-85],[79,-326],[92,-95],[37,-196],[70,-92],[41,29],[-6,-153],[18,-55],[55,-64],[80,31],[63,-218],[75,-132],[76,297],[66,-27],[41,-121],[49,-464],[13,9],[-6,155],[28,182],[69,-28],[79,-247],[33,-392],[74,-237],[33,-246]],[[31418,62814],[45,209]],[[31463,63023],[6471,-805]],[[37934,62218],[23,-142],[173,-400],[31,-140],[-15,-86],[-48,-26],[-91,219],[-28,8],[-19,-337],[20,-293],[-85,-309],[23,-336],[144,-190],[17,-122]],[[32342,57566],[-289,1874],[-364,1899],[37,321],[9,637],[-68,279],[-249,238]],[[38079,60064],[455,949],[1196,-273],[189,3]],[[42558,49895],[-2471,-6300],[-41,-63],[-93,7],[-270,-200],[-10,-89],[-64,-155],[-104,-139],[-38,-174],[-160,-275],[-22,-123]],[[39285,42384],[-538,2008],[-528,1834],[-1201,-2277],[-106,423],[-74,198],[-5,459],[10,428],[67,420],[45,96],[116,82],[43,168],[1,208],[-48,360],[-56,195],[-111,167],[57,482],[30,54],[107,18]],[[37991,56846],[-44,451],[43,283],[-41,476],[92,513],[86,208],[7,131],[-105,396],[40,477],[31,106],[-21,177]],[[39919,60743],[532,-3]],[[40451,60740],[2082,-151],[1467,-40],[1433,42]],[[45433,60591],[-2128,-10415],[6,-132],[-101,-181],[-75,-332],[-71,-143],[-10,-78],[24,-132],[-13,-134]],[[43065,49044],[-507,851]],[[42558,49895],[-1312,2145],[-308,2880],[-175,318],[-254,573],[-140,340],[-120,496],[-128,250],[34,398],[125,71],[-232,1582],[-9,198],[-61,300],[-37,469],[-49,294],[0,276],[27,258]],[[32342,57566],[5021,-585],[628,-135]],[[37991,56846],[6,-153],[-28,-158],[-119,-135],[-108,-205],[-85,-17],[-24,-53],[-2,-168],[42,-289],[101,-136],[77,158],[40,225],[45,33],[111,-310],[89,-45],[66,-118],[112,13],[40,-79],[-131,-122],[-98,-231],[-132,2],[-89,-136],[-45,129],[-40,31],[-69,-231],[-92,-137],[-8,-145],[49,-204],[-3,-113],[-105,-326],[-59,-393],[-60,-134],[-89,-882],[-69,-425],[12,-391],[64,-356],[-28,-289],[2,-201],[-44,-420],[101,-542],[-13,-474],[50,-554],[-14,-307],[-42,-239],[16,-289],[-42,-145],[-89,40],[-74,-190],[-119,-28]],[[37094,47707],[-926,220],[-2388,335]],[[33780,48262],[58,1032],[-13,1805],[31,675],[-387,732],[4,570],[-129,680],[32,314],[81,260],[-475,815],[-640,2421]]]}