{"type":"Topology","objects":{"regions":{"geometries":[{"properties":{"region":"Northeast","region_num":1},"type":"Polygon","arcs":[[-3,-4,0]],"id":0},{"properties":{"region":"Southeast","region_num":2},"type":"Polygon","arcs":[[1,-7,-5,2]],"id":1},{"properties":{"region":"North Central","region_num":3},"type":"Polygon","arcs":[[3,4,-9,-10,5]],"id":2},{"properties":{"region":"Sandhills","region_num":4},"type":"Polygon","arcs":[[6,7,-14,-11,8]],"id":3},{"properties":{"region":"Piedmont Triad","region_num":5},"type":"Polygon","arcs":[[9,10,-13,-16,11]],"id":4},{"properties":{"region":"Southwest","region_num":6},"type":"Polygon","arcs":[[12,13,14,-33,-19,-18,17,-17]],"id":5},{"properties":{"region":"Northwest","region_num":7},"type":"Polygon","arcs":[[15,16,-18,17,18,-32,19,-30,20,-28,21,-26,-25,24,-24,22]],"id":6},{"properties":{"region":"Western","region_num":8},"type":"Polygon","arcs":[[23,-25,24,25,26,27,28,29,30,31,32,33]],"id":7}],"type":"GeometryCollection"}},"bbox":[-84.32186899995428,33.75287799972003,-75.4001190003914,36.58815700044536],"transform":{"scale":[8.921839217955057e-05,2.8352790004417948e-05],"translate":[-84.32186899995428,33.752906352793566]},"arcs":[[[71982,98465],[7787,-2],[396,96],[191,-115],[2645,-10],[8,293],[1864,-60],[10672,19],[78,-1791],[458,-5169],[430,-3648],[406,-2943],[245,-1465],[803,-4409],[174,-866],[745,-4338],[214,-1355],[160,-455],[57,-393],[4,-199],[103,-457],[157,-868],[222,-2147],[123,-1732],[72,-1532],[3,-639],[-26,-1101],[-142,-1552],[-137,-4178],[-229,-2537],[-130,-2231],[-99,-946],[-3,-160],[-69,-464],[-112,-510],[-229,-464],[-159,-189],[-145,-68],[-178,36],[-107,84],[-132,176],[-138,296],[-153,-38],[-458,-375],[-406,-424],[-392,-497],[-323,-191],[-153,-158],[-505,-599],[-192,-176],[-176,-266],[-291,-330],[-495,-714],[-339,-620],[-119,-285],[-127,-417],[-191,-389],[-205,-516],[-146,-232],[-95,-48]],[[93198,44197],[-197,-23],[-1123,-2550],[-1060,-2704],[-341,-768],[-741,-2067],[-660,-2117],[-732,-2715],[-296,-1527],[-124,-1041],[-64,-348],[-99,-346],[-257,-402],[-106,-105],[-264,24],[-164,144],[-107,198],[-130,356],[-79,370],[-53,519],[-189,786],[-27,640],[-700,565],[-175,305],[-415,151],[-222,16],[-777,-156],[-1019,-413],[-1006,-512],[-892,-742],[-169,-261],[-322,-148],[-421,-542],[-657,-1036],[-460,-1010],[-391,-777],[-517,-611],[-870,-1260],[-1091,-1887],[-736,-1708],[-146,-362],[-154,-480],[-168,-246],[-361,-1028],[-142,-554],[-133,-287],[-120,-156],[-109,-344],[-95,-500],[-153,-417],[-88,-712],[-102,-326],[-85,-175],[4,-161],[-29,-346],[-46,-219],[-237,-576],[-119,-476],[-165,-1216],[-336,-2131],[-132,-1062],[12,0],[-160,-1414],[-78,-405],[-15,-491],[-235,-1094],[-18,-442],[-91,-440],[-16,-520],[-37,-327],[0,-215],[41,-467],[-17,-550],[35,-529],[-33,-605],[-65,-319],[-138,-440],[-163,-284],[-154,-149],[-236,-30],[-221,205],[-178,297],[-58,224],[-74,543],[-16,528],[-315,526],[-134,305],[-110,416],[-43,309],[-883,521],[-422,49],[-457,-59],[-432,25],[-884,-278],[-149,-107],[-142,-23],[-357,-294],[-1124,-1073],[-468,1350],[-1225,3284]],[[74215,66990],[133,-112],[89,-348],[-20,-235],[55,-217],[42,-110],[131,-152],[377,-1178],[80,-121],[127,-518],[118,-34],[91,-112],[111,-335],[124,-193],[53,-324],[89,-251],[159,42],[62,-92],[30,14],[10,-51],[43,25],[7,-74],[55,2],[-2,-100],[28,-4],[5,-57],[-30,-141],[35,-70],[104,17],[26,51],[37,-93],[40,38],[-38,-244],[13,-29],[-61,-70],[57,-125],[-66,-249],[11,-50],[42,-3],[-10,-34],[65,-117],[-3,-79],[14,17],[2,-45],[-19,-102],[24,9],[-3,-87],[26,-139],[51,-93],[-3,-133],[41,-157],[-5,-136],[-23,-84],[97,-162],[-19,-78],[11,-108],[50,-40],[-41,-220],[36,-59],[10,104],[39,-48],[-29,-210],[55,28],[-28,-346],[12,-134],[33,-24],[31,-176],[-4,-406],[73,-163],[-7,-70],[41,-66],[-27,-32],[10,-47],[70,-110],[-20,-56],[26,-39],[40,54],[2,-75],[38,21],[-18,-42],[7,-89],[-59,-121],[21,-95],[86,-86],[-36,-195],[2,-110],[90,-179],[93,23],[51,-236],[5,-370],[20,-44],[44,-17],[29,133],[25,-34],[103,60],[64,-174],[92,-43],[18,-51],[10,-196],[82,-166],[211,-66],[121,-194],[659,1812],[173,-134],[104,-202],[25,-168],[-27,-155],[31,-204],[128,-161],[210,396],[20,638],[-49,88],[58,87],[-25,245],[65,67],[42,216],[71,-86],[30,52],[13,116],[194,-20],[30,126],[9,190],[28,-25],[2,237],[42,94],[2596,-4164],[1271,-2993],[2387,677],[209,1258],[-5,137],[24,160],[-25,215],[1,217],[-57,378],[35,437],[-9,571],[47,139],[97,120],[154,834],[769,-292],[36,-173],[519,-287],[134,-122],[132,-198],[72,-149],[757,-2179],[220,-543],[3242,-4406],[664,-2515],[-4,-1687]],[[71982,98465],[20,-1334],[-98,-539],[-56,-568],[0,-1150],[-71,-93],[-23,-144],[36,-308],[55,-100],[-2,-1507],[-358,-2978],[-700,-3339],[54,-133],[57,-18],[-13,-44],[13,-168],[36,-75],[5,-155],[26,-27],[-6,54],[42,103],[45,-93],[-8,-213],[51,-76],[20,-125],[23,86],[25,-32],[24,41],[26,197],[-7,106],[-36,103],[0,172],[63,-5],[178,-478],[80,57],[14,141],[-17,75],[5,149],[33,-6],[113,-354],[57,32],[22,200],[71,-296],[-59,-493],[79,-107],[74,63],[96,-92],[-7,-216],[100,-188],[60,-262],[33,124],[59,-148],[1,56],[82,18],[65,117],[47,18],[55,-102],[93,-38],[299,-12],[69,-170],[84,-60],[30,106],[-8,183],[18,115],[57,-184],[79,21],[103,-131],[47,89],[52,-49],[21,156],[29,-27],[140,96],[45,106],[1,179],[32,17],[49,-157],[49,77],[50,-57],[54,-223],[31,63],[-24,-339],[62,-51],[31,-124],[27,-19],[51,101],[-58,163],[65,180],[44,-41],[53,38],[14,135],[37,11],[38,90],[71,-75],[69,75],[44,-60],[-2,69],[46,37],[-2,-129],[77,-81],[-53,-149],[56,-42],[-1,-79],[40,-47],[-24,-11],[4,-70],[22,20],[9,-45],[19,80],[29,-93],[17,80],[26,-54],[42,75],[0,-67],[31,29],[19,-91],[5,92],[24,-34],[52,39],[7,-97],[76,-126],[10,-87],[-12,-48],[36,15],[15,-119],[22,-22],[-16,-36],[22,-4],[0,-70],[-20,-67],[39,30],[-25,-150],[37,-16],[-14,-48],[17,-82],[14,115],[7,-112],[20,-32],[24,43],[11,-56],[57,-40],[45,25],[-3,39],[25,-23],[-15,-104],[49,94],[7,-101],[49,-38],[9,-77],[46,-60],[-7,-58],[24,15],[5,110],[18,-90],[25,70],[28,-73],[9,57],[21,-20],[-12,-93],[28,53],[16,-80],[28,48],[1,-101],[29,-3],[3,64],[22,7],[-4,-56],[54,-47],[3,58],[78,-45],[28,-100],[32,37],[-2,67],[46,20],[1,75],[129,-167],[12,31],[29,-77],[-4,-99],[33,31],[27,-44],[-9,-130],[29,-110],[-13,-94],[-23,3],[11,-46],[-23,4],[16,-47],[-14,-35],[29,-28],[6,-62],[19,24],[-20,-67],[54,-34],[26,-142],[-47,-16],[-69,-186],[-35,46],[-13,-127],[55,-228],[29,52],[12,-102],[-21,-35],[22,-87],[22,25],[3,-110],[27,-34],[14,47],[30,-74],[-18,-200],[-35,42],[-18,-68],[29,-3],[4,-61],[55,44],[41,-66],[485,21],[78,-204],[150,-71],[167,-297],[15,-88],[-43,-142],[73,-51],[86,-290],[66,-54],[110,46],[36,77],[66,-73],[-72,-220],[747,-3292],[-22,-1065],[-58,-278],[-11,-1695],[-444,483],[-15,-138],[-62,-132],[-144,38],[-25,-37],[-19,-84],[0,-180],[-42,-227],[-81,-208],[-227,118],[-41,-67],[-37,-237],[-227,31],[-493,-1415],[-247,-381],[-657,-1203],[-915,-1727],[-246,-523]],[[74215,66990],[-593,-1281],[-590,-1145],[-113,176],[-74,-109],[-1964,9],[-672,429],[-1087,-6354],[10,-905],[45,-8],[64,-168],[-21,-154],[-129,-281],[-52,-249],[49,-268],[-24,-117],[71,-12],[4,-206],[-59,-102],[-24,63],[-47,-103],[-34,50],[-28,-54],[-43,33],[-60,-117],[-58,49],[-23,-93],[-110,33],[-9,-122],[-49,41],[-88,-51],[-25,85],[-18,-63],[-32,14],[-19,-72],[21,-188],[-285,-461],[-78,-3],[-93,181],[-121,-17],[-58,-204],[-164,-149],[-191,-1021]],[[58104,98362],[7024,-28],[2931,124],[3923,7]],[[67444,54076],[651,-2113],[951,-774],[-36,-912],[21,-1249],[-85,-1102],[-15,-644],[141,-477],[-9,-984],[96,-1649],[-6,-810],[-21,-312],[48,-910],[-9,-291],[40,-1310],[-163,-1339],[-66,-724],[-3,-328],[-200,-1725],[-13,-270],[-155,-1434],[538,-548],[100,-170],[108,-387],[209,502],[1,63],[22,-1],[-10,-524],[-471,-1004],[-1155,-4659],[-146,-308],[24,-79],[2,-131],[76,-106],[-27,-77],[25,-65],[-9,-162],[108,-6],[-23,-92],[8,-129],[36,-11],[13,-94],[-29,38],[-17,-117],[36,-79],[-2,-52],[75,-119],[4,-58],[27,29],[26,-53],[37,-113],[6,-97],[27,-36],[124,-63],[7,95],[60,-200],[57,44],[4,-93],[52,63],[-12,-62],[31,-121],[-6,-97],[37,-148],[116,-65],[35,-75],[2,-89],[50,-49],[30,65],[24,-128],[39,-26],[-895,-2311],[36,-278],[22,-16],[39,87],[16,-48],[16,-117],[-8,-147],[103,-184],[18,-215],[29,24],[39,148],[39,-171],[155,-165],[9,-355],[105,-221],[84,-13],[169,88],[43,-123],[50,171],[90,27],[-736,-3539],[-85,-290],[-212,-1133],[-1342,-398],[-6,-72],[89,-501],[-77,-26],[-38,-143],[-173,-376],[-170,-664],[-127,-338],[-40,-201],[-146,108],[-71,140],[-205,138],[-203,316],[-82,-20],[-33,149],[-51,31],[-20,110],[-83,41],[-147,-65],[-42,-266],[-77,-152],[-77,-26],[-46,-257],[-16,-16],[-30,89],[-43,-82],[8,-109],[-24,-160],[32,-94],[-25,-31],[80,-342],[-15,-77],[-36,52],[7,61],[-73,-34],[-18,-84],[16,-90],[-21,-17],[25,-28],[-57,-43],[5,-57],[-17,19],[28,-96],[-11,-29],[26,10],[2,48],[23,-116],[-49,-165],[16,-87],[-24,-23],[57,22],[28,-37],[-13,-102],[41,-21],[-37,-34],[-3,-104],[-49,-33],[-15,78],[-59,-127],[19,-68],[-36,12],[35,-303],[-47,-38],[-19,-161],[44,-87],[20,16],[-18,68],[43,-27],[14,-161],[-15,-186],[-46,-22],[3,-178],[20,18],[-12,-65],[-24,21],[10,-51],[-20,-7],[-13,-163],[-66,-30],[-17,89],[-20,-95],[-21,90],[-101,-258],[-4,-182],[42,-29],[-9,42],[14,9],[8,-90],[-24,-35],[6,-139],[-40,26],[-28,-48],[29,-78],[-15,-88],[-52,33],[11,-68],[-33,-10],[8,-73],[-22,-35],[-25,90],[-50,-53],[-7,49],[-11,-57],[-4,79],[-12,-47],[14,-71],[-31,33],[1,-103],[-53,-26],[14,56],[-30,-32],[-1,43],[-21,-86],[-23,26],[7,-71],[-45,47],[-33,-183],[-63,45],[-11,-73],[-36,4],[-6,-62],[-112,-186],[1,-227],[93,-366],[59,-492],[-14,-127],[40,-99],[-15,-46],[-50,98],[-4,-87],[-38,-69],[-64,-47],[-13,49],[-19,-110],[-67,-62],[19,-177],[33,60],[-8,-74],[25,-133],[-15,-65],[-32,-4],[23,-146],[-35,-14],[5,-81],[-41,-69],[2,-48]],[[63569,6748],[-6178,16378],[-1757,4833],[-3553,9139],[-2828,64]],[[53419,62152],[2308,103],[-14,-148],[117,-256],[58,-294],[-34,-193],[-80,-165],[-64,-366],[-92,-4],[37,-120],[-35,-151],[27,-47],[19,46],[6,-166],[34,21],[-6,-41],[47,-28],[-34,-134],[12,-67],[48,-22],[4,-77],[44,-95],[1,-128],[79,-139],[32,-155],[29,-21],[0,-113],[28,-63],[-31,-129],[-2,-269],[27,1],[10,-80],[100,-44],[62,-237],[3,-119],[73,-97],[16,-96],[113,-184],[44,31],[63,-508],[76,-319],[22,-385],[37,-129],[-17,-355],[86,-247],[127,-70],[363,-669],[433,-612],[-445,-1370],[233,-356],[98,-279],[72,-97],[98,11],[149,-237],[66,-281],[59,-128],[-5,-315],[44,-253],[140,-65],[33,-164],[162,-68],[216,-285],[57,-161],[823,591],[130,43],[140,139],[236,-82],[401,262],[67,-20],[71,131],[42,-22],[10,76],[54,-123],[37,116],[128,116],[81,145],[55,-86],[51,75],[90,-14],[72,177],[-20,216],[92,125],[89,-89],[59,205],[72,67],[8,93],[54,-15],[43,53],[49,-50],[20,99],[49,-4],[27,142],[71,43],[155,-130],[47,212],[30,-29],[11,96],[38,50],[134,-85],[-13,-44],[20,-55],[38,94],[84,-52],[15,-97],[48,-40],[17,108],[32,-8],[-23,74],[36,27],[-9,-65],[13,-15],[34,80],[26,-27],[1,-123],[44,70],[-1,62],[100,18],[59,-77],[64,52],[53,129],[60,-78],[15,-165],[61,-10],[17,-76],[47,56],[32,-79],[984,-395],[89,302],[104,154],[13,224],[158,293],[17,209],[-28,193],[26,237],[-23,75],[27,68],[-6,52],[27,46],[58,-76],[37,54],[27,161],[68,82],[70,5],[-24,59],[52,118],[86,51],[71,141],[560,-1825],[908,-246],[522,520],[663,528]],[[58104,98362],[-177,-10568],[-1158,44],[-85,-11846],[86,-214],[-14,-335],[31,-257],[65,-253],[-15,-205],[21,-199],[-16,-321],[22,-77],[128,-141],[-2,-228],[-3421,-30],[-150,-11580]],[[53419,62152],[-7025,-379]],[[38334,99071],[720,-98],[423,71],[294,-27],[773,71],[4593,-648],[8747,-113],[4220,35]],[[38554,81221],[2118,-163],[-147,-5903],[-11,-1123],[87,-50],[34,145],[36,-36],[17,348],[50,-132],[115,-133],[28,60],[25,-64],[40,16],[-10,-153],[-36,-76],[19,-117],[119,-63],[120,60],[84,-80],[121,56],[9,-256],[87,26],[134,-275],[10,-118],[-27,-96],[32,-72],[63,12],[5,91],[24,-99],[26,139],[58,-2],[-4,-143],[37,-209],[43,78],[-31,74],[37,51],[176,-228],[31,-154],[71,-92],[79,-327],[91,-75],[49,-219],[51,-64],[44,39],[-5,-128],[16,-83],[51,-65],[83,36],[68,-222],[73,-124],[76,300],[61,-24],[45,-129],[51,-449],[3,171],[26,160],[72,-24],[79,-251],[28,-354],[76,-237],[61,-452],[40,-132],[112,14],[338,-440],[95,-1],[99,103],[74,-204],[74,6],[127,-115],[356,178],[71,-51],[89,-310],[13,-142],[-8,-122],[-63,-169],[-41,-199],[2,-254],[42,-256],[39,-116],[130,-129],[81,-166],[39,-477],[105,-297],[66,-307],[61,-101],[164,-82],[71,-97],[61,-203],[85,-121],[103,-271],[90,-509],[272,-597],[9,-338],[-39,-528],[9,-106],[30,-114],[92,-144],[40,-283],[-16,-267],[73,-144],[68,-292],[-6,-317],[25,-146]],[[46394,61773],[30,-156],[14,-316],[28,-195],[116,-183],[47,-177],[141,-92],[103,86],[119,-278],[124,-67],[93,-151],[20,-133],[-5,-427],[125,-247],[-3,-148],[-31,-141],[113,-470],[-37,-513],[72,-111],[38,-134],[99,-1],[100,-196],[43,-119],[49,-298],[75,-217],[-32,-196],[-126,-194],[-11,-699],[-175,-677],[27,-365],[-11,-123],[-139,-614],[-14,-128],[22,-515],[-70,-490],[78,-751],[151,-285],[92,-367],[91,-641],[10,-386],[84,-373],[3,-211],[-43,-304],[-127,-292],[-81,-447],[6,-309],[68,-459],[-5,-272],[41,-103],[267,-270],[193,-430],[326,-195],[120,168],[65,367],[242,474],[171,177],[160,-43],[41,-79],[30,-323],[102,-346],[-2,-611],[35,-414],[113,-280],[184,-297],[84,-309],[-19,-223],[-174,-464],[-18,-198],[-58,-279],[-2,-129],[226,-620],[163,-280],[15,-181],[-95,-708],[-1,-170],[50,-326],[88,-283],[41,-252],[72,-522],[7,-328],[-158,-686],[-78,-247],[-166,-425],[-175,-191],[-93,-587],[-58,-812],[-91,-301],[-60,-103]],[[49253,37162],[-6413,377],[-3337,88],[173,4093],[-1152,4151],[-562,1902],[-257,-521],[-937,-1691],[-181,624],[4,837],[81,448],[142,131],[46,152],[3,243],[-67,443],[-128,167],[-9,84],[38,364],[38,147],[126,46],[-2428,397],[-5809,707]],[[38334,99071],[-75,-177],[-8,-138],[-105,-440],[-34,-514],[64,-72],[19,-110],[-62,-520],[-75,-116],[-413,-1534],[-128,-223],[308,-1191],[-221,-627],[309,-630],[92,-575],[94,-96],[27,99],[44,25],[51,-183],[83,-62],[13,-148],[47,-78],[14,-117],[-11,-136],[37,-156],[141,-270],[54,-34],[30,-165],[44,-16],[30,-96],[-149,-9550]],[[38554,81221],[-1048,108],[-597,-460],[285,-1729],[-21,-1359],[-402,-3535],[-216,-804],[-44,-368],[-63,-233],[-86,-200],[-18,-132],[4,-210],[-87,-215],[-78,-93],[-84,-236],[-14,-156],[-40,-41],[-5,-108]],[[36040,71448],[0,2]],[[36040,71450],[-33,-73],[67,-269],[111,-9],[45,-101],[9,-82],[-20,-220],[260,-705],[37,-334],[-19,-267],[17,-258],[44,-95],[208,-112],[261,193],[168,-116],[72,-168],[76,-402],[34,-23],[74,-407],[156,-354],[12,-248],[54,-123],[22,-231],[42,-130],[18,-229],[110,-212],[72,-259],[142,-302],[-11,-131],[-133,-172],[-51,-175],[-2,-162],[83,-207],[22,-202],[-60,-166],[-84,-81],[-102,-336],[-24,-280],[38,-461],[-74,-235],[-3017,316],[-338,84],[-1288,124],[-1395,215],[-399,2],[-38,-153],[-97,17],[-101,-98],[-61,28],[-69,-166],[-28,1],[-80,52],[-26,82],[12,165],[-33,26],[-114,-93],[-48,99],[2,93],[-29,34],[-107,-157],[-48,25],[-66,-76],[-16,65],[-159,-66],[-9,62],[-10,-69],[-160,-125],[-86,133],[-38,0],[-22,69],[-60,-42],[-73,74],[-62,255],[-57,57],[-64,252],[-25,-35],[1,-122]],[[28116,64462],[-16,-7]],[[28038,64413],[-8,16]],[[28022,64446],[-10,9]],[[20360,78468],[19,152],[39,20],[174,363],[27,175],[70,13],[62,167],[111,175],[573,2664],[219,476],[106,85],[55,222],[130,69],[99,283],[58,53],[35,-67],[121,-7],[201,208],[164,357],[157,165],[102,-243],[71,21],[82,-88],[28,11],[43,229],[67,81],[29,-134],[76,-42],[39,215],[138,262],[55,207],[26,229],[106,78],[130,-94],[19,-132],[75,-134],[58,78],[35,-219],[83,-95],[53,148],[147,-21],[35,81],[39,-21],[50,70],[43,-187],[1,-141],[36,-60],[48,-342],[-16,-326],[91,-538],[164,11],[110,123],[77,-84],[141,10],[62,-106],[8,124],[206,233],[56,250],[25,233],[114,-49],[67,-152],[48,-25],[49,110],[38,275],[1320,6020],[117,191],[117,62],[92,169],[140,435],[12,107],[118,279],[22,-25],[222,381],[258,160],[105,218],[37,13],[50,142],[-7,-107],[34,-141],[11,-251],[50,-32],[71,43],[55,-172],[54,-41],[2,-55],[45,-83],[42,56],[76,-114],[97,18],[70,78],[41,114],[90,-55],[107,-190],[122,-31],[24,216],[-23,149],[-113,80],[-70,263],[-7,89],[21,28],[-3,84],[-49,165],[11,116],[-96,376],[59,204],[-11,103],[20,105],[-38,125],[-79,6],[6,209],[-33,81],[14,182],[-21,97],[18,74],[69,-23],[8,80],[49,37],[21,144],[72,89],[19,96],[19,178],[-42,131],[75,112],[-10,53],[14,100],[-38,128],[44,76],[-22,150],[6,134],[-19,42],[82,106],[19,102],[74,57],[27,-31],[43,149],[-13,91],[18,118],[-24,111],[9,132],[-24,304],[23,107],[-16,157],[-33,82],[33,121],[7,139],[-19,28],[6,64],[-56,446],[-58,107],[11,155],[-16,85],[4,159],[92,39],[3,121],[67,283],[4,105],[35,19],[-13,163],[20,188],[-26,151],[10,74],[129,31],[30,104],[-31,248],[17,165],[-24,83],[31,81],[867,-46],[896,-226],[342,-49],[145,42],[371,-121],[771,-73],[10,-57],[109,54],[2,48],[57,-50],[808,17],[2127,-269],[517,-17],[475,-106],[1197,-75]],[[20360,78468],[49,-285],[2,-128],[44,-63],[4,-245],[128,-127],[59,-155],[0,-44],[-80,-141],[-41,-265],[-88,-231],[10,-164],[47,-44],[3,-96],[27,5],[11,-62],[-54,-363],[95,-83],[36,68],[90,14],[127,-342],[115,1],[47,-83],[76,-334],[-10,-112],[36,-172],[84,-100],[17,-95],[82,-167],[-22,-279],[90,-81],[-9,-324],[12,-91],[-26,-193],[35,-435],[50,-104],[-26,-131],[6,-121],[57,-58],[56,49],[18,-64],[181,141],[49,86],[90,-221],[84,139],[46,-14],[36,-155],[113,-200],[22,-192],[87,-171],[8,-170],[-92,-333],[33,-199],[-2,-198],[67,-263],[31,-681],[92,-49],[51,-245],[103,-242],[244,-125],[75,-162],[98,-394],[5,-345],[-152,-288],[-65,-424],[40,-57],[99,-302],[25,-235],[-72,-338],[11,-345],[30,-55],[15,-262],[64,-60],[61,-211],[-43,-80],[31,-153],[-11,-99],[85,-143],[2,-124],[-43,-63],[-13,-105],[-96,-22],[-48,-210],[-57,-71],[-48,-213],[12,-130],[448,-1115],[346,-231],[147,-188],[631,-1051],[882,656],[292,49],[145,0],[45,-71],[70,41],[109,373],[113,145]],[[25993,63449],[0,-1]],[[25993,63448],[94,-277],[91,-116],[0,-92],[77,-183],[66,-293],[1467,620],[-14,127],[32,153],[1,134],[87,172],[-5,168],[45,150],[17,219],[49,53],[12,172]],[[28012,64455],[10,-9]],[[28022,64446],[8,-17]],[[28030,64429],[8,-16]],[[28038,64413],[34,-32],[28,74]],[[28100,64455],[16,7]],[[28116,64462],[32,24],[58,-57],[94,150],[12,267],[24,62],[62,32],[58,-80],[122,25],[9,84],[36,69],[-42,178],[40,35],[23,131],[100,93],[30,107],[48,-66],[52,-233],[43,26],[62,-98],[42,-1],[143,184],[43,-139],[-15,-83],[24,25],[-25,-84],[15,-25],[-13,-91],[17,28],[-4,-70],[45,-95],[1,-91],[29,12],[37,-280],[19,-28],[23,87],[45,-153],[68,27]],[[29473,64434],[-118,-7851],[-633,-4731],[-98,-1501]],[[28624,50351],[-4630,479],[-1051,212],[-152,-52],[-77,-128],[-219,-137],[-95,-222],[-80,70],[-28,136],[-73,-60],[-56,148],[-62,-10],[-17,-97],[-87,78],[-59,-112],[26,-101],[-110,-209],[-133,376],[12,118],[50,61],[-24,219],[-52,140],[16,49],[-3,102],[-37,46],[-33,130],[-30,-4],[-72,-220],[10,-107],[-238,-266],[-53,-194],[13,-82],[-31,-52],[-19,-170],[-2,-49],[41,-58],[-19,-14],[-3,-70],[-51,-43],[-8,-164],[-40,-107],[5,-67],[-56,-86],[-121,9],[-75,-76],[-4,121],[66,181],[-34,179],[-61,20],[-89,-123],[-78,-21],[-31,72],[-52,-78],[-48,21],[-7,-168],[-39,-1],[-53,-176],[10,-55],[-13,-39],[-99,134],[-37,-122],[-97,33],[-29,-44],[-9,-105],[-84,-114],[-101,-38],[-4,187],[-105,128],[-42,-76],[-38,3],[-32,-135],[26,-175],[-41,-74],[-57,81],[-21,-29],[-39,-117],[-4,-114],[-97,-34],[-22,-126],[-104,62],[-41,-60],[-11,-85],[-60,-38],[-167,70],[-21,-117],[-103,-106],[-5,-100],[-48,-168],[-83,-10],[-2,171],[-37,-20],[-20,90],[-42,-195],[-75,-21],[0,-114],[-53,-148],[-111,-22],[-32,86],[-43,-110],[-13,35],[15,107],[-17,174],[-76,52],[-19,-69],[-45,-30],[4,-188],[-64,-39],[-19,-89],[10,-109],[65,-79],[11,-94],[-128,-451],[-17,21],[-9,172],[-169,-279],[-131,43],[-22,-77],[-7,-153],[-53,-20],[-20,-200],[-31,-11],[1,-101],[-138,115],[-12,-60],[10,-223],[-60,-217],[-89,31],[-71,-27],[-47,-97],[-78,13],[30,186],[-12,74],[32,107],[15,190],[-30,111],[-66,61],[-3626,-2999],[-3071,-209],[-2666,-94],[2,-193],[-7867,64],[355,8365],[25,-39],[53,75],[88,289],[169,250],[29,152],[50,116],[118,127],[119,406],[94,159],[134,-106],[100,-364],[31,-391],[13,-35],[65,39],[53,-170],[111,25],[96,201],[97,-102],[26,85],[124,38],[92,-28],[80,-145],[61,-38],[16,39],[-13,155],[17,120],[64,84],[62,-116],[85,88],[47,-119],[54,-26],[168,307],[-7,74],[22,105],[285,248],[38,74],[16,117],[49,21],[70,201],[48,310],[140,251],[1,109],[23,74],[-54,187],[-3,106],[-104,127],[14,335],[57,381],[-21,114],[-55,44],[25,180],[-49,178],[9,71],[69,113],[89,41],[93,376],[87,239],[-15,29],[5,226],[-33,194],[34,212],[-51,67],[-15,194],[-58,92],[-46,391],[95,14],[150,398],[37,272],[-19,99],[59,50],[31,195],[33,-46],[11,58],[46,-13],[44,267],[82,-29],[-7,198],[23,6],[2,85],[71,-46],[-11,76],[50,119],[1,158],[52,-3],[42,-120],[23,1],[87,133],[8,95],[58,150],[140,102],[86,-27],[57,85],[69,459],[59,143],[-12,122],[64,187],[40,43],[88,341],[19,156],[28,55],[83,85],[150,25],[121,-92],[186,195],[71,-33],[177,369],[82,257],[40,-19],[52,151],[158,178],[79,250],[15,164],[80,-20],[86,72],[99,-132],[39,100],[100,98],[31,-82],[36,36],[70,-81],[50,76],[47,-4],[85,163],[74,-32],[61,96],[72,-90],[95,89],[217,-74],[50,62],[123,-146],[51,-4],[42,49],[30,113],[54,-85],[79,147],[82,69],[72,191],[79,-43],[32,-110],[28,-13],[97,-274],[26,-142],[147,91],[59,-30],[12,47],[156,-58],[355,44],[33,-96],[216,3],[49,127],[97,66],[75,381],[-6,144],[68,102],[19,144],[97,81],[14,96],[48,52],[23,181],[39,53],[9,105],[46,93],[10,97],[148,-65],[124,44],[13,80],[61,41],[100,196],[106,89],[44,84],[44,300],[120,32],[66,170],[58,-21],[30,137],[68,152],[30,272],[45,184],[86,69],[37,92],[32,-47],[31,84],[155,-93],[94,-283],[174,104],[39,147],[5,139],[25,45],[4,194],[17,66],[63,10],[27,106],[109,130],[20,166],[117,141],[56,198],[-10,201],[-28,138],[77,139],[-54,198],[48,175],[87,92],[32,149],[231,-6],[62,-76],[120,75],[62,-38],[141,155],[92,495],[82,77],[60,300],[-1,189],[64,174],[255,13],[98,100],[84,-66],[24,119],[227,216],[36,132],[96,147],[9,76],[47,43],[26,87],[48,19],[117,-119],[127,102],[96,-148],[88,73],[137,-142],[37,-105],[50,55],[63,-119],[51,-7],[55,-168],[102,11],[91,143],[144,383],[106,78],[-13,104],[12,228],[114,574],[40,37],[-6,74],[30,155],[23,47],[88,-2],[31,172],[-6,224],[151,91],[45,78],[-53,334],[28,285],[-33,140],[9,189],[111,5],[49,60],[66,107],[47,204],[-19,76],[-63,-32],[-32,117],[60,327],[-82,427],[16,82],[-14,130],[-71,143],[32,57],[-19,259],[-65,61],[-8,105],[81,27],[75,-116],[43,19],[35,126],[-30,261],[36,258],[69,13],[36,101],[168,154],[148,-174],[104,59],[65,-111],[14,-150],[37,-12],[28,-150],[56,-58],[10,-92],[45,-9],[79,-392],[75,135],[114,53],[25,105],[-35,275],[61,219],[60,87],[41,153],[44,43],[33,414],[76,106],[32,179],[-42,99],[-36,-7],[-41,113],[15,144],[-17,245],[71,130],[39,292],[41,-7],[114,148],[85,-17],[49,60],[-3,106],[65,31],[26,92],[25,-14],[13,102],[155,113],[102,162],[12,212],[74,35],[74,102],[7,60],[31,-10],[11,60],[95,100],[51,245],[56,99],[47,11],[49,144],[53,14],[76,138],[49,-31],[52,56],[146,282],[53,0],[4,-57],[155,-299],[1,-307],[97,-78],[37,-134],[43,-56],[7,-120],[69,21],[41,-32],[11,-74],[-1,-74],[-137,-300],[4,-179],[-60,-92],[-14,-152],[22,-28],[-8,-60],[-69,-176],[-7,-120],[22,-216],[69,-64],[30,-171],[-75,-454],[0,-248],[118,-99],[94,62],[123,-29],[37,-48],[8,-148],[21,-57],[194,-158],[91,366],[51,39],[30,92],[129,151],[41,11],[26,-54],[87,167],[45,-18],[32,69],[56,16]]]}